{"type":"FeatureCollection","features":[{"type":"Feature","properties":{"name":"France"},"geometry":{"type":"MultiPolygon","coordinates":[[[[9.480371,42.80542],[9.454199,42.658594],[9.473242,42.615576],[9.509375,42.585596],[9.526172,42.552637],[9.556445,42.160937],[9.550684,42.129736],[9.428418,41.972412],[9.400879,41.926221],[9.394824,41.731201],[9.374219,41.678809],[9.330859,41.627148],[9.253418,41.460059],[9.186133,41.384912],[9.003027,41.476562],[8.89502,41.516162],[8.84209,41.558887],[8.80752,41.588379],[8.829785,41.627686],[8.879004,41.668555],[8.886816,41.700684],[8.770996,41.737109],[8.717969,41.761426],[8.718652,41.804004],[8.758691,41.87041],[8.74043,41.925146],[8.673633,41.922363],[8.621875,41.930713],[8.615137,41.959131],[8.653418,41.995557],[8.702539,42.043115],[8.700977,42.095605],[8.641602,42.118213],[8.587793,42.16084],[8.566211,42.218799],[8.60791,42.258447],[8.675488,42.284033],[8.625879,42.343408],[8.592383,42.344727],[8.565625,42.357715],[8.5875,42.385303],[8.640039,42.426562],[8.713086,42.549756],[8.814844,42.60791],[8.994922,42.645312],[9.043652,42.66167],[9.088379,42.70498],[9.137891,42.73291],[9.198047,42.729199],[9.253516,42.712451],[9.287695,42.694629],[9.313379,42.713184],[9.338379,42.766895],[9.323047,42.814062],[9.330957,42.943799],[9.363184,43.017383],[9.415234,43.021484],[9.463281,42.981006],[9.46084,42.945215],[9.478613,42.860498],[9.480371,42.80542]]],[[[7.615625,47.592725],[7.494922,47.547363],[7.467383,47.507666],[7.42002,47.455176],[7.343164,47.433105],[7.265723,47.425781],[7.203125,47.432715],[7.16748,47.453711],[7.169238,47.473242],[7.136035,47.489844],[7.053418,47.489355],[6.968359,47.453223],[6.900391,47.394238],[6.921484,47.36123],[6.984082,47.352539],[7.000586,47.339453],[7.000586,47.32251],[6.978516,47.302051],[6.952051,47.267187],[6.820703,47.163184],[6.688086,47.058252],[6.666895,47.026514],[6.624805,47.004346],[6.45625,46.94834],[6.438574,46.925879],[6.429004,46.832275],[6.410156,46.75542],[6.285156,46.683057],[6.160742,46.611035],[6.129688,46.566992],[6.107031,46.516064],[6.067969,46.458545],[6.060254,46.428174],[6.123242,46.378613],[6.115918,46.337646],[6.095898,46.279395],[6.036133,46.238086],[5.97002,46.214697],[5.971484,46.151221],[6.006641,46.142334],[6.086621,46.147021],[6.199414,46.193066],[6.272949,46.252246],[6.22959,46.308447],[6.224219,46.319434],[6.234668,46.332617],[6.321875,46.393701],[6.428906,46.430518],[6.578223,46.437354],[6.758105,46.415771],[6.776074,46.406641],[6.767383,46.369189],[6.78418,46.313965],[6.816797,46.275195],[6.77207,46.165137],[6.805664,46.130664],[6.858008,46.089404],[6.897266,46.051758],[6.953711,46.017139],[7.003906,45.958838],[7.021094,45.925781],[6.94082,45.868359],[6.804492,45.814551],[6.78916,45.780078],[6.790918,45.740869],[6.80625,45.71001],[6.881445,45.670361],[6.962402,45.580566],[7.013672,45.500488],[7.126074,45.423682],[7.153418,45.400928],[7.146387,45.381738],[7.116797,45.349023],[7.07832,45.239941],[7.032422,45.222607],[6.98125,45.215576],[6.842285,45.135645],[6.780371,45.145312],[6.692285,45.144287],[6.627734,45.117969],[6.634766,45.068164],[6.691406,45.022607],[6.724707,44.972998],[6.738184,44.921387],[6.801074,44.883154],[6.889355,44.860303],[6.939844,44.85874],[6.972852,44.84502],[6.992676,44.827295],[7.030664,44.716699],[7.00791,44.688965],[6.960352,44.677148],[6.931934,44.631641],[6.875195,44.564551],[6.842969,44.510693],[6.878613,44.463281],[6.893848,44.428174],[6.874805,44.392041],[6.900195,44.335742],[6.967285,44.280029],[7.149414,44.201709],[7.318555,44.137988],[7.370898,44.127393],[7.599414,44.168359],[7.637207,44.164844],[7.665039,44.116016],[7.677148,44.083154],[7.651465,44.033643],[7.589648,43.96543],[7.522656,43.911084],[7.482031,43.864893],[7.490527,43.822949],[7.493164,43.767139],[7.438672,43.750439],[7.436914,43.761475],[7.414453,43.770898],[7.39502,43.765332],[7.380078,43.753223],[7.377734,43.731738],[7.261523,43.696094],[7.181445,43.659131],[6.864746,43.43833],[6.716602,43.373584],[6.687402,43.33457],[6.657227,43.26167],[6.570215,43.199072],[6.494043,43.169287],[6.305371,43.138721],[6.115918,43.072363],[6.030566,43.100977],[5.809473,43.0979],[5.671582,43.177832],[5.406543,43.228516],[5.320215,43.344922],[5.199512,43.35249],[5.12041,43.348975],[5.073145,43.366602],[5.06084,43.406299],[5.059766,43.444531],[4.975977,43.426953],[4.911914,43.426953],[4.87373,43.411621],[4.843555,43.393945],[4.80791,43.405225],[4.787207,43.401416],[4.789062,43.378906],[4.712109,43.373291],[4.628711,43.387109],[4.409766,43.447217],[4.376172,43.456396],[4.224219,43.479639],[4.162793,43.503662],[4.113086,43.563037],[4.075098,43.581836],[4.052637,43.593066],[3.91084,43.563086],[3.861621,43.516357],[3.784766,43.461621],[3.258887,43.193213],[3.162891,43.080762],[3.051758,42.915137],[3.043066,42.837891],[3.090918,42.590869],[3.197852,42.461182],[3.211426,42.431152],[3.152148,42.431006],[3.052637,42.447217],[2.97002,42.467236],[2.891406,42.456055],[2.815625,42.429248],[2.749414,42.413037],[2.701855,42.408496],[2.67002,42.393018],[2.654785,42.362109],[2.65166,42.340479],[2.567969,42.345801],[2.374414,42.390283],[2.200391,42.420947],[2.09834,42.386084],[2.032715,42.353516],[1.986523,42.358496],[1.951465,42.392773],[1.92793,42.426318],[1.859766,42.45708],[1.706055,42.50332],[1.713965,42.525635],[1.740234,42.556738],[1.739453,42.575928],[1.709863,42.604443],[1.568164,42.63501],[1.501367,42.642725],[1.458887,42.62168],[1.42832,42.595898],[1.349414,42.690674],[1.293262,42.709961],[1.208301,42.713135],[1.111133,42.742041],[1.010059,42.778955],[0.764453,42.838037],[0.696875,42.845117],[0.669824,42.835742],[0.651758,42.800439],[0.641992,42.700635],[0.631641,42.6896],[0.517676,42.686279],[0.377246,42.700146],[0.312891,42.693262],[0.255469,42.69292],[0.201367,42.719336],[-0.041162,42.689111],[-0.081494,42.703857],[-0.140039,42.748926],[-0.205322,42.785303],[-0.256055,42.803955],[-0.299316,42.825342],[-0.338574,42.828809],[-0.398438,42.808105],[-0.481152,42.799316],[-0.549805,42.802002],[-0.586426,42.798975],[-0.740186,42.909521],[-0.762646,42.939795],[-0.839209,42.948193],[-0.933838,42.949512],[-1.175439,43.021143],[-1.285449,43.059619],[-1.301562,43.082471],[-1.300049,43.100977],[-1.318848,43.096973],[-1.352734,43.064258],[-1.370508,43.037598],[-1.394043,43.032617],[-1.42876,43.036768],[-1.46084,43.051758],[-1.480469,43.071143],[-1.459424,43.10498],[-1.422607,43.149121],[-1.407324,43.197119],[-1.410693,43.240088],[-1.471729,43.267676],[-1.561475,43.279199],[-1.627148,43.282471],[-1.712842,43.307031],[-1.753271,43.324707],[-1.792725,43.372559],[-1.794043,43.407324],[-1.631445,43.438037],[-1.484863,43.56377],[-1.345996,44.020215],[-1.245508,44.559863],[-1.170801,44.661816],[-1.076953,44.689844],[-1.152881,44.764014],[-1.200391,44.726465],[-1.220312,44.686621],[-1.245215,44.666699],[-1.189062,45.161475],[-1.149072,45.342627],[-1.081006,45.532422],[-0.941748,45.45708],[-0.826318,45.380664],[-0.76665,45.314355],[-0.691113,45.093457],[-0.633984,45.047119],[-0.548486,45.000586],[-0.582275,45.051367],[-0.641113,45.090186],[-0.733105,45.384619],[-0.790771,45.468018],[-0.880664,45.538184],[-1.169971,45.685937],[-1.195996,45.714453],[-1.209961,45.770898],[-1.114355,45.768506],[-1.031738,45.741064],[-1.041504,45.772656],[-1.066016,45.805664],[-1.104395,45.925342],[-1.136377,46.204834],[-1.132031,46.252686],[-1.146289,46.311377],[-1.238818,46.324512],[-1.312793,46.326904],[-1.39248,46.350098],[-1.786523,46.514844],[-1.921436,46.684814],[-2.059375,46.810303],[-2.09248,46.865039],[-2.090283,46.920508],[-2.018896,47.037646],[-2.081934,47.111621],[-2.143555,47.126318],[-2.19707,47.162939],[-2.148584,47.223926],[-2.108301,47.262939],[-2.027588,47.273584],[-1.921729,47.260645],[-1.821289,47.225342],[-1.742529,47.215967],[-1.975391,47.310693],[-2.353027,47.27876],[-2.434424,47.290967],[-2.503125,47.312061],[-2.530029,47.381592],[-2.476318,47.412939],[-2.427686,47.470898],[-2.482715,47.511621],[-2.554053,47.527051],[-2.665918,47.526172],[-2.770312,47.513867],[-2.796777,47.537256],[-2.733105,47.601807],[-2.787207,47.625537],[-2.859375,47.614453],[-2.964062,47.601074],[-3.064209,47.621338],[-3.158838,47.694678],[-3.221582,47.694141],[-3.264697,47.685107],[-3.328613,47.71333],[-3.395898,47.72041],[-3.443945,47.711035],[-3.507812,47.753125],[-3.900928,47.837549],[-4.070703,47.847852],[-4.226416,47.809619],[-4.312109,47.8229],[-4.375098,47.877441],[-4.427979,47.968945],[-4.678809,48.039502],[-4.629199,48.085791],[-4.512402,48.096729],[-4.377832,48.128809],[-4.329443,48.169971],[-4.434619,48.217969],[-4.512207,48.229736],[-4.544336,48.246973],[-4.577148,48.290039],[-4.530664,48.309717],[-4.4979,48.299268],[-4.40332,48.293066],[-4.241406,48.303662],[-4.301758,48.34707],[-4.364404,48.356738],[-4.393164,48.367627],[-4.524805,48.372314],[-4.584717,48.35752],[-4.719385,48.363135],[-4.748535,48.41001],[-4.7625,48.450244],[-4.720752,48.539893],[-4.531201,48.619971],[-4.058887,48.70752],[-3.855664,48.694727],[-3.714795,48.710498],[-3.545996,48.765674],[-3.471484,48.812939],[-3.231445,48.84082],[-3.003223,48.790674],[-2.792871,48.601074],[-2.692334,48.536816],[-2.446191,48.648291],[-2.079443,48.64502],[-2.003711,48.58208],[-1.973145,48.635107],[-1.905713,48.697119],[-1.851953,48.668848],[-1.824707,48.630518],[-1.437646,48.641406],[-1.376465,48.652588],[-1.480469,48.697607],[-1.565479,48.805518],[-1.583105,49.202393],[-1.690332,49.313184],[-1.813428,49.490137],[-1.870068,49.595117],[-1.875391,49.631396],[-1.856445,49.683789],[-1.705127,49.680957],[-1.588232,49.667676],[-1.365723,49.707275],[-1.258643,49.680176],[-1.264941,49.598242],[-1.232275,49.494873],[-1.194971,49.444824],[-1.138525,49.387891],[-0.959131,49.393164],[-0.765527,49.359717],[-0.520898,49.354541],[-0.163477,49.296777],[-0.011182,49.330225],[0.136133,49.401514],[0.416895,49.448389],[0.439258,49.473193],[0.277637,49.463281],[0.129395,49.508447],[0.109375,49.55752],[0.126563,49.601562],[0.186719,49.703027],[0.616211,49.862939],[0.924121,49.910205],[1.245508,49.998242],[1.407227,50.088525],[1.514063,50.205078],[1.548438,50.230713],[1.592773,50.252197],[1.551563,50.293945],[1.579492,50.739258],[1.60957,50.819482],[1.672266,50.88501],[1.767676,50.935693],[1.9125,50.990625],[2.445703,51.066504],[2.524902,51.097119],[2.536035,51.049512],[2.574805,50.988574],[2.601465,50.955273],[2.579297,50.911768],[2.596777,50.875928],[2.669141,50.811426],[2.759375,50.750635],[2.839746,50.711768],[2.862402,50.716016],[2.921973,50.727051],[3.022852,50.766895],[3.106836,50.779443],[3.154883,50.748926],[3.182031,50.731689],[3.234961,50.662939],[3.249805,50.591162],[3.27334,50.531543],[3.316211,50.507373],[3.476953,50.499463],[3.59541,50.477344],[3.626758,50.457324],[3.667285,50.324805],[3.689355,50.306055],[3.718848,50.32168],[3.748047,50.343506],[3.788574,50.346973],[3.858105,50.338574],[3.949707,50.335938],[4.044141,50.321338],[4.174609,50.246484],[4.169629,50.221777],[4.144141,50.178418],[4.135254,50.143799],[4.157715,50.129883],[4.192188,50.094141],[4.183887,50.052832],[4.150293,50.023877],[4.136816,50],[4.137012,49.984473],[4.149316,49.971582],[4.176074,49.960254],[4.36875,49.944971],[4.54502,49.960254],[4.656152,50.002441],[4.675098,50.046875],[4.706641,50.09707],[4.772852,50.139062],[4.818652,50.153174],[4.860547,50.135889],[4.790039,49.95957],[4.841504,49.914502],[4.849121,49.847119],[4.867578,49.788135],[4.930566,49.789258],[5.006934,49.778369],[5.061035,49.756543],[5.124121,49.721484],[5.215039,49.689258],[5.278809,49.67793],[5.301953,49.650977],[5.353516,49.619824],[5.434668,49.554492],[5.507324,49.510889],[5.542383,49.511035],[5.610059,49.528223],[5.710449,49.539209],[5.789746,49.538281],[5.823438,49.505078],[5.901367,49.489746],[5.928906,49.477539],[5.959473,49.454639],[6.011426,49.445459],[6.074121,49.454639],[6.119922,49.485205],[6.181055,49.498926],[6.242188,49.494336],[6.277344,49.477539],[6.344336,49.452734],[6.382227,49.458154],[6.458105,49.442871],[6.534277,49.394678],[6.566309,49.346191],[6.574707,49.319678],[6.607617,49.290869],[6.735449,49.160596],[6.77627,49.15415],[6.820703,49.173926],[6.849512,49.201953],[6.891211,49.20752],[6.958301,49.194629],[7.001465,49.179883],[7.022168,49.123437],[7.036719,49.112695],[7.065723,49.124854],[7.117383,49.127539],[7.199902,49.113623],[7.313379,49.129541],[7.404199,49.153076],[7.450586,49.152197],[7.525488,49.086377],[7.610938,49.061768],[7.799219,49.041895],[8.00127,49.010937],[8.080664,48.985889],[8.134863,48.973584],[8.140332,48.886426],[8.124023,48.873291],[7.922754,48.698535],[7.837988,48.636035],[7.794824,48.546826],[7.765137,48.41001],[7.705664,48.280029],[7.616602,48.156787],[7.58418,48.064307],[7.608496,48.002588],[7.593262,47.905664],[7.538574,47.773633],[7.529395,47.673877],[7.56543,47.606543],[7.615625,47.592725]]],[[[-1.17832,45.904053],[-1.213574,45.816602],[-1.280273,45.897119],[-1.368701,45.967676],[-1.388867,46.032959],[-1.388672,46.050391],[-1.285059,46.002686],[-1.17832,45.904053]]]]}},{"type":"Feature","properties":{"name":"Belgium"},"geometry":{"type":"Polygon","coordinates":[[[4.226172,51.386475],[4.304492,51.361523],[4.37373,51.356006],[4.404004,51.36709],[4.384766,51.427588],[4.440918,51.459814],[4.503418,51.474707],[4.531641,51.448584],[4.58877,51.421924],[4.633984,51.421729],[4.755664,51.491113],[4.78418,51.477393],[4.810547,51.452734],[4.816016,51.432812],[4.820703,51.412061],[4.848047,51.403271],[4.943945,51.407764],[4.992578,51.445361],[5.030957,51.469092],[5.059473,51.453125],[5.073438,51.406836],[5.099902,51.346484],[5.21416,51.278955],[5.31084,51.259717],[5.429785,51.272998],[5.476855,51.285059],[5.508789,51.275],[5.54043,51.239307],[5.608789,51.198437],[5.752344,51.169482],[5.796484,51.153076],[5.827148,51.125635],[5.818262,51.086426],[5.749805,50.98877],[5.74082,50.959912],[5.75,50.950244],[5.736621,50.932129],[5.647559,50.86665],[5.639453,50.843604],[5.669141,50.805957],[5.693555,50.774756],[5.693652,50.774658],[5.74707,50.75957],[5.797363,50.754541],[5.892461,50.752557],[5.993945,50.750439],[6.005957,50.732227],[6.119434,50.679248],[6.154492,50.637256],[6.235938,50.59668],[6.168457,50.545361],[6.178711,50.52251],[6.203027,50.499121],[6.294922,50.485498],[6.340918,50.451758],[6.343652,50.400244],[6.364453,50.316162],[6.175098,50.232666],[6.121289,50.139355],[6.116504,50.120996],[6.110059,50.123779],[6.089063,50.15459],[6.054785,50.154297],[5.97627,50.167187],[5.866895,50.082812],[5.817383,50.012695],[5.788086,49.96123],[5.744043,49.919629],[5.735254,49.875635],[5.74082,49.857178],[5.725781,49.83335],[5.725,49.808301],[5.787988,49.758887],[5.803711,49.732178],[5.880371,49.644775],[5.856543,49.612842],[5.837598,49.57832],[5.81543,49.553809],[5.789746,49.538281],[5.710449,49.539209],[5.610059,49.528223],[5.542383,49.511035],[5.507324,49.510889],[5.434668,49.554492],[5.353516,49.619824],[5.301953,49.650977],[5.278809,49.67793],[5.215039,49.689258],[5.124121,49.721484],[5.061035,49.756543],[5.006934,49.778369],[4.930566,49.789258],[4.867578,49.788135],[4.849121,49.847119],[4.841504,49.914502],[4.790039,49.95957],[4.860547,50.135889],[4.818652,50.153174],[4.772852,50.139062],[4.706641,50.09707],[4.675098,50.046875],[4.656152,50.002441],[4.54502,49.960254],[4.36875,49.944971],[4.176074,49.960254],[4.149316,49.971582],[4.137012,49.984473],[4.136816,50],[4.150293,50.023877],[4.183887,50.052832],[4.192188,50.094141],[4.157715,50.129883],[4.135254,50.143799],[4.144141,50.178418],[4.169629,50.221777],[4.174609,50.246484],[4.044141,50.321338],[3.949707,50.335938],[3.858105,50.338574],[3.788574,50.346973],[3.748047,50.343506],[3.718848,50.32168],[3.689355,50.306055],[3.667285,50.324805],[3.626758,50.457324],[3.59541,50.477344],[3.476953,50.499463],[3.316211,50.507373],[3.27334,50.531543],[3.249805,50.591162],[3.234961,50.662939],[3.182031,50.731689],[3.154883,50.748926],[3.106836,50.779443],[3.022852,50.766895],[2.921973,50.727051],[2.862402,50.716016],[2.839746,50.711768],[2.759375,50.750635],[2.669141,50.811426],[2.596777,50.875928],[2.579297,50.911768],[2.601465,50.955273],[2.574805,50.988574],[2.536035,51.049512],[2.524902,51.097119],[2.960156,51.26543],[3.225195,51.351611],[3.350098,51.377686],[3.380078,51.291113],[3.402832,51.263623],[3.43252,51.245752],[3.471973,51.242236],[3.51709,51.263623],[3.580273,51.286182],[3.681836,51.275684],[3.755664,51.254834],[3.781934,51.233203],[3.830762,51.212598],[3.902051,51.207666],[4.040039,51.24707],[4.172559,51.30708],[4.211426,51.34873],[4.226172,51.386475]]]}},{"type":"Feature","properties":{"name":"Netherlands"},"geometry":{"type":"MultiPolygon","coordinates":[[[[5.993945,50.750439],[5.892461,50.752557],[5.797363,50.754541],[5.74707,50.75957],[5.693652,50.774658],[5.693555,50.774756],[5.669141,50.805957],[5.639453,50.843604],[5.647559,50.86665],[5.736621,50.932129],[5.75,50.950244],[5.74082,50.959912],[5.749805,50.98877],[5.818262,51.086426],[5.827148,51.125635],[5.796484,51.153076],[5.752344,51.169482],[5.608789,51.198437],[5.54043,51.239307],[5.508789,51.275],[5.476855,51.285059],[5.429785,51.272998],[5.31084,51.259717],[5.21416,51.278955],[5.099902,51.346484],[5.073438,51.406836],[5.059473,51.453125],[5.030957,51.469092],[4.992578,51.445361],[4.943945,51.407764],[4.848047,51.403271],[4.820703,51.412061],[4.816016,51.432812],[4.810547,51.452734],[4.78418,51.477393],[4.755664,51.491113],[4.633984,51.421729],[4.58877,51.421924],[4.531641,51.448584],[4.503418,51.474707],[4.440918,51.459814],[4.384766,51.427588],[4.404004,51.36709],[4.37373,51.356006],[4.304492,51.361523],[4.226172,51.386475],[4.138867,51.401514],[4.006543,51.443213],[3.821875,51.409375],[3.693555,51.449902],[3.586914,51.453906],[3.520508,51.486182],[3.448926,51.540771],[3.499609,51.57666],[3.548633,51.589111],[3.743945,51.596045],[3.886035,51.574219],[4.141309,51.455762],[4.205762,51.456689],[4.274121,51.471631],[4.239355,51.503906],[4.175488,51.519287],[4.080469,51.551123],[4.004785,51.59585],[4.182617,51.610303],[4.158008,51.633447],[4.13457,51.6729],[3.946875,51.810547],[3.978906,51.847803],[4.026074,51.927734],[4.084863,51.994092],[4.131738,52.011914],[4.208789,52.058984],[4.37627,52.196826],[4.482813,52.30918],[4.562109,52.442578],[4.67832,52.809766],[4.712695,52.872119],[4.76875,52.941309],[4.839063,52.928271],[4.887988,52.90835],[5.06123,52.960645],[5.358398,53.096484],[5.445996,53.214062],[5.532031,53.268701],[5.873535,53.375195],[6.062207,53.40708],[6.353223,53.415283],[6.563574,53.434277],[6.816211,53.441162],[6.912402,53.375391],[6.968164,53.327295],[7.058008,53.300586],[7.197266,53.282275],[7.188965,53.187207],[7.189941,52.999512],[7.179492,52.966211],[7.11709,52.887012],[7.050879,52.744775],[7.033008,52.651367],[7.013184,52.633545],[6.748438,52.634082],[6.710742,52.617871],[6.705371,52.597656],[6.71875,52.573584],[6.712402,52.549658],[6.691602,52.530176],[6.70293,52.499219],[6.748828,52.464014],[6.83252,52.442285],[6.92207,52.440283],[6.968164,52.444092],[7.001855,52.418994],[7.035156,52.380225],[7.032617,52.331494],[7.019629,52.266016],[6.977246,52.205518],[6.855078,52.135791],[6.800391,52.11123],[6.749023,52.098682],[6.724512,52.080225],[6.712988,52.056885],[6.715625,52.036182],[6.802441,51.980176],[6.800391,51.967383],[6.775195,51.938281],[6.741797,51.910889],[6.517578,51.853955],[6.425,51.858398],[6.372168,51.830029],[6.355664,51.824658],[6.29707,51.850732],[6.166504,51.880762],[6.117188,51.87041],[6.089844,51.853955],[6.007617,51.833984],[5.94873,51.802686],[5.948535,51.762402],[6.052734,51.658252],[6.089355,51.637793],[6.091113,51.598926],[6.141602,51.550098],[6.193262,51.488916],[6.198828,51.45],[6.192871,51.410596],[6.166211,51.354834],[6.075879,51.224121],[6.074805,51.199023],[6.082422,51.17998],[6.113379,51.174707],[6.136914,51.164844],[6.12998,51.147412],[5.961035,51.056689],[5.939258,51.04082],[5.868359,51.045312],[5.85752,51.030127],[5.867188,51.005664],[5.894727,50.984229],[5.955078,50.972949],[6.006836,50.949951],[6.048438,50.904883],[5.993945,50.750439]]],[[[4.226172,51.386475],[4.211426,51.34873],[4.172559,51.30708],[4.040039,51.24707],[3.902051,51.207666],[3.830762,51.212598],[3.781934,51.233203],[3.755664,51.254834],[3.681836,51.275684],[3.580273,51.286182],[3.51709,51.263623],[3.471973,51.242236],[3.43252,51.245752],[3.402832,51.263623],[3.380078,51.291113],[3.350098,51.377686],[3.425781,51.393506],[3.589453,51.399414],[3.716504,51.369141],[3.883398,51.354492],[4.011035,51.395947],[4.111523,51.360645],[4.226172,51.386475]]],[[[6.333398,53.510742],[6.193262,53.476807],[6.159277,53.483936],[6.167676,53.49375],[6.290918,53.51499],[6.333398,53.510742]]],[[[5.929297,53.458838],[5.732031,53.442627],[5.665332,53.454883],[5.654297,53.466504],[5.708105,53.473389],[5.87627,53.475098],[5.928223,53.46499],[5.929297,53.458838]]],[[[5.108594,53.308008],[4.92373,53.23457],[4.90791,53.24624],[5.027051,53.310205],[5.108594,53.308008]]],[[[5.325781,53.385742],[5.232617,53.377783],[5.190234,53.391797],[5.415137,53.431445],[5.557422,53.443555],[5.582617,53.438086],[5.325781,53.385742]]],[[[4.886133,53.070703],[4.787109,52.999805],[4.726758,53.019629],[4.70918,53.036035],[4.739844,53.091309],[4.886426,53.183301],[4.886133,53.070703]]],[[[3.949121,51.739453],[4.046777,51.684912],[4.067578,51.66748],[4.075098,51.648779],[3.950977,51.627051],[3.819043,51.693994],[3.731836,51.678223],[3.699023,51.709912],[3.698535,51.729687],[3.789062,51.746436],[3.949121,51.739453]]],[[[6.734766,53.58252],[6.64209,53.579199],[6.668555,53.605664],[6.75459,53.625488],[6.800879,53.625488],[6.734766,53.58252]]]]}},{"type":"Feature","properties":{"name":"Luxembourg"},"geometry":{"type":"Polygon","coordinates":[[[6.116504,50.120996],[6.108301,50.094238],[6.109766,50.034375],[6.138184,49.974316],[6.204883,49.915137],[6.256055,49.872168],[6.324609,49.837891],[6.440918,49.805322],[6.487305,49.798486],[6.49375,49.754395],[6.484766,49.707812],[6.444629,49.682031],[6.406738,49.644971],[6.37832,49.599609],[6.348438,49.512695],[6.344336,49.452734],[6.277344,49.477539],[6.242188,49.494336],[6.181055,49.498926],[6.119922,49.485205],[6.074121,49.454639],[6.011426,49.445459],[5.959473,49.454639],[5.928906,49.477539],[5.901367,49.489746],[5.823438,49.505078],[5.789746,49.538281],[5.81543,49.553809],[5.837598,49.57832],[5.856543,49.612842],[5.880371,49.644775],[5.803711,49.732178],[5.787988,49.758887],[5.725,49.808301],[5.725781,49.83335],[5.74082,49.857178],[5.735254,49.875635],[5.744043,49.919629],[5.788086,49.96123],[5.817383,50.012695],[5.866895,50.082812],[5.97627,50.167187],[6.054785,50.154297],[6.089063,50.15459],[6.110059,50.123779],[6.116504,50.120996]]]}},{"type":"Feature","properties":{"name":"Germany"},"geometry":{"type":"MultiPolygon","coordinates":[[[[9.524023,47.524219],[9.35,47.598926],[9.182813,47.670703],[9.127539,47.670703],[8.881152,47.656396],[8.874023,47.662695],[8.831152,47.703613],[8.793066,47.716553],[8.770117,47.709912],[8.754785,47.698047],[8.72832,47.700049],[8.617871,47.766113],[8.572656,47.775635],[8.509863,47.766895],[8.435742,47.731348],[8.403418,47.687793],[8.413281,47.662695],[8.451758,47.651807],[8.552344,47.659131],[8.56709,47.651904],[8.570508,47.637793],[8.559473,47.624023],[8.477637,47.612695],[8.454004,47.596191],[8.430078,47.592139],[8.414746,47.5896],[8.327832,47.606934],[8.198242,47.606934],[8.09375,47.576172],[7.927051,47.563867],[7.698047,47.569873],[7.615625,47.592725],[7.56543,47.606543],[7.529395,47.673877],[7.538574,47.773633],[7.593262,47.905664],[7.608496,48.002588],[7.58418,48.064307],[7.616602,48.156787],[7.705664,48.280029],[7.765137,48.41001],[7.794824,48.546826],[7.837988,48.636035],[7.922754,48.698535],[8.124023,48.873291],[8.140332,48.886426],[8.134863,48.973584],[8.080664,48.985889],[8.00127,49.010937],[7.799219,49.041895],[7.610938,49.061768],[7.525488,49.086377],[7.450586,49.152197],[7.404199,49.153076],[7.313379,49.129541],[7.199902,49.113623],[7.117383,49.127539],[7.065723,49.124854],[7.036719,49.112695],[7.022168,49.123437],[7.001465,49.179883],[6.958301,49.194629],[6.891211,49.20752],[6.849512,49.201953],[6.820703,49.173926],[6.77627,49.15415],[6.735449,49.160596],[6.607617,49.290869],[6.574707,49.319678],[6.566309,49.346191],[6.534277,49.394678],[6.458105,49.442871],[6.382227,49.458154],[6.344336,49.452734],[6.348438,49.512695],[6.37832,49.599609],[6.406738,49.644971],[6.444629,49.682031],[6.484766,49.707812],[6.49375,49.754395],[6.487305,49.798486],[6.440918,49.805322],[6.324609,49.837891],[6.256055,49.872168],[6.204883,49.915137],[6.138184,49.974316],[6.109766,50.034375],[6.108301,50.094238],[6.116504,50.120996],[6.121289,50.139355],[6.175098,50.232666],[6.364453,50.316162],[6.343652,50.400244],[6.340918,50.451758],[6.294922,50.485498],[6.203027,50.499121],[6.178711,50.52251],[6.168457,50.545361],[6.235938,50.59668],[6.154492,50.637256],[6.119434,50.679248],[6.005957,50.732227],[5.993945,50.750439],[6.048438,50.904883],[6.006836,50.949951],[5.955078,50.972949],[5.894727,50.984229],[5.867188,51.005664],[5.85752,51.030127],[5.868359,51.045312],[5.939258,51.04082],[5.961035,51.056689],[6.12998,51.147412],[6.136914,51.164844],[6.113379,51.174707],[6.082422,51.17998],[6.074805,51.199023],[6.075879,51.224121],[6.166211,51.354834],[6.192871,51.410596],[6.198828,51.45],[6.193262,51.488916],[6.141602,51.550098],[6.091113,51.598926],[6.089355,51.637793],[6.052734,51.658252],[5.948535,51.762402],[5.94873,51.802686],[6.007617,51.833984],[6.089844,51.853955],[6.117188,51.87041],[6.166504,51.880762],[6.29707,51.850732],[6.355664,51.824658],[6.372168,51.830029],[6.425,51.858398],[6.517578,51.853955],[6.741797,51.910889],[6.775195,51.938281],[6.800391,51.967383],[6.802441,51.980176],[6.715625,52.036182],[6.712988,52.056885],[6.724512,52.080225],[6.749023,52.098682],[6.800391,52.11123],[6.855078,52.135791],[6.977246,52.205518],[7.019629,52.266016],[7.032617,52.331494],[7.035156,52.380225],[7.001855,52.418994],[6.968164,52.444092],[6.92207,52.440283],[6.83252,52.442285],[6.748828,52.464014],[6.70293,52.499219],[6.691602,52.530176],[6.712402,52.549658],[6.71875,52.573584],[6.705371,52.597656],[6.710742,52.617871],[6.748438,52.634082],[7.013184,52.633545],[7.033008,52.651367],[7.050879,52.744775],[7.11709,52.887012],[7.179492,52.966211],[7.189941,52.999512],[7.188965,53.187207],[7.197266,53.282275],[7.152051,53.326953],[7.05332,53.37583],[7.074316,53.477637],[7.107129,53.556982],[7.206445,53.654541],[7.285254,53.681348],[7.629199,53.697266],[8.009277,53.690723],[8.16709,53.543408],[8.108496,53.467676],[8.200781,53.432422],[8.245215,53.445312],[8.279004,53.511182],[8.301563,53.584131],[8.333887,53.606201],[8.451367,53.551709],[8.492676,53.514355],[8.495215,53.394238],[8.538477,53.556885],[8.50625,53.670752],[8.528418,53.781104],[8.575586,53.838477],[8.618945,53.875],[8.897754,53.835693],[9.205566,53.855957],[9.321973,53.813477],[9.585352,53.600488],[9.673145,53.565625],[9.783984,53.554639],[9.63125,53.600195],[9.312012,53.859131],[9.216406,53.891211],[9.069629,53.900928],[8.978125,53.926221],[8.92041,53.965332],[8.903516,54.000293],[8.906641,54.260791],[8.851562,54.299561],[8.780371,54.313037],[8.736035,54.295215],[8.644922,54.294971],[8.625781,54.353955],[8.648047,54.397656],[8.831152,54.427539],[8.951855,54.467578],[8.957227,54.53833],[8.880957,54.593945],[8.789648,54.695947],[8.682324,54.791846],[8.670313,54.903418],[8.670703,54.90332],[8.857227,54.901123],[8.90293,54.896924],[9.18584,54.844678],[9.25498,54.808008],[9.341992,54.806299],[9.49873,54.84043],[9.61582,54.85542],[9.66123,54.834375],[9.725,54.825537],[9.739746,54.825537],[9.745898,54.807178],[9.892285,54.780615],[9.953809,54.738281],[10.022168,54.673926],[10.028809,54.581299],[9.941309,54.514648],[9.868652,54.472461],[10.143457,54.488428],[10.170801,54.450195],[10.212402,54.408936],[10.360449,54.43833],[10.731543,54.31626],[10.955957,54.375684],[11.013379,54.37915],[11.064355,54.280518],[11.008594,54.181152],[10.810742,54.075146],[10.85459,54.009814],[10.917773,53.995312],[11.104297,54.00918],[11.399609,53.944629],[11.461133,53.964746],[11.700586,54.113525],[11.796289,54.145459],[12.111328,54.168311],[12.168652,54.225879],[12.296289,54.283789],[12.378516,54.347021],[12.575391,54.467383],[12.779102,54.445703],[12.898047,54.422656],[13.028613,54.411035],[13.147461,54.282715],[13.448047,54.140869],[13.724219,54.153223],[13.822266,54.019043],[13.865527,53.853369],[13.950391,53.801367],[14.025,53.767432],[14.25,53.731885],[14.258887,53.729639],[14.266113,53.707129],[14.279883,53.624756],[14.29873,53.556445],[14.414551,53.283496],[14.412305,53.216748],[14.410938,53.199023],[14.368555,53.105566],[14.293164,53.026758],[14.193652,52.982324],[14.138867,52.932861],[14.128613,52.878223],[14.253711,52.78252],[14.514063,52.645605],[14.619434,52.528516],[14.569727,52.431104],[14.55459,52.359668],[14.573926,52.31416],[14.615625,52.277637],[14.679883,52.25],[14.705371,52.207471],[14.692383,52.150049],[14.70459,52.110205],[14.752539,52.081836],[14.748145,52.070801],[14.724805,52.030859],[14.692969,51.958008],[14.674902,51.904834],[14.60166,51.832373],[14.623926,51.770801],[14.681348,51.698193],[14.724902,51.661719],[14.738672,51.627148],[14.710938,51.544922],[14.724707,51.523877],[14.905957,51.46333],[14.935547,51.435352],[14.953125,51.377148],[15.016602,51.252734],[14.963867,51.095117],[14.91748,51.00874],[14.814258,50.871631],[14.809375,50.858984],[14.797461,50.842334],[14.766504,50.818311],[14.72334,50.814697],[14.658203,50.832617],[14.613574,50.855566],[14.623828,50.914746],[14.595215,50.918604],[14.559668,50.954932],[14.545703,50.993945],[14.507324,51.009863],[14.367285,51.02627],[14.319727,51.037793],[14.283203,51.029492],[14.255859,51.001855],[14.27334,50.976904],[14.299414,50.952588],[14.377051,50.914062],[14.369043,50.89873],[14.201758,50.86123],[14.096484,50.822754],[13.998438,50.801123],[13.898535,50.761279],[13.701367,50.716504],[13.556738,50.704639],[13.526563,50.692822],[13.472559,50.616943],[13.436133,50.601074],[13.401172,50.609326],[13.374609,50.621729],[13.341016,50.611426],[13.306055,50.586328],[13.269531,50.576416],[13.237695,50.576758],[13.181152,50.510498],[13.016406,50.490381],[12.99707,50.456055],[12.966797,50.416211],[12.942676,50.406445],[12.868262,50.422217],[12.76543,50.430957],[12.706445,50.409131],[12.635547,50.39707],[12.549023,50.393408],[12.452637,50.349805],[12.358594,50.273242],[12.305664,50.205713],[12.277344,50.181445],[12.231152,50.244873],[12.174805,50.288379],[12.134863,50.310937],[12.099219,50.310986],[12.089844,50.301758],[12.089746,50.268555],[12.127832,50.213428],[12.175,50.17583],[12.18252,50.148047],[12.207813,50.09751],[12.276465,50.042334],[12.38418,49.998584],[12.457617,49.955518],[12.512012,49.895801],[12.5125,49.877441],[12.497559,49.853076],[12.471875,49.830078],[12.450195,49.800146],[12.390527,49.739648],[12.408203,49.713184],[12.457031,49.679785],[12.500293,49.639697],[12.555762,49.574854],[12.632031,49.46123],[12.681152,49.414502],[12.747852,49.366211],[12.813379,49.329346],[12.916699,49.330469],[13.02373,49.260107],[13.140527,49.15835],[13.227832,49.11167],[13.28877,49.097461],[13.339063,49.060791],[13.383691,49.008105],[13.401172,48.977588],[13.440723,48.955566],[13.547656,48.959668],[13.684961,48.876709],[13.769922,48.815967],[13.814746,48.766943],[13.80293,48.74751],[13.797461,48.686426],[13.798828,48.62168],[13.785352,48.587451],[13.723926,48.542383],[13.692188,48.532764],[13.675195,48.523047],[13.486621,48.581836],[13.47168,48.571826],[13.459863,48.564551],[13.409375,48.394141],[13.374609,48.361377],[13.322852,48.33125],[13.215234,48.301904],[13.14043,48.289941],[13.082129,48.275098],[12.897461,48.203711],[12.814258,48.16084],[12.760352,48.106982],[12.760059,48.075977],[12.849902,47.984814],[12.953516,47.890625],[12.954199,47.807764],[12.908301,47.745801],[12.897656,47.721875],[12.928125,47.712842],[12.985547,47.709424],[13.033594,47.69873],[13.054102,47.655127],[13.047949,47.57915],[13.031543,47.508008],[13.014355,47.478076],[12.968066,47.475684],[12.878906,47.506445],[12.809375,47.542187],[12.782813,47.56416],[12.781152,47.59043],[12.796191,47.607031],[12.771387,47.639404],[12.68584,47.669336],[12.594238,47.656299],[12.526563,47.636133],[12.48291,47.637305],[12.435742,47.666113],[12.363184,47.688184],[12.268359,47.702734],[12.209277,47.718262],[12.196875,47.709082],[12.203809,47.646729],[12.185645,47.619531],[11.716797,47.583496],[11.573926,47.549756],[11.469922,47.506104],[11.392969,47.487158],[11.374121,47.460254],[11.297949,47.424902],[11.211914,47.413623],[11.191211,47.425195],[11.136035,47.408887],[11.041992,47.393115],[10.980859,47.398145],[10.952148,47.426709],[10.893945,47.470459],[10.870605,47.500781],[10.873047,47.520215],[10.741602,47.524121],[10.658691,47.547217],[10.482813,47.541797],[10.439453,47.551562],[10.430371,47.541064],[10.403906,47.416992],[10.369141,47.366064],[10.312793,47.313428],[10.240625,47.284131],[10.183008,47.278809],[10.185742,47.317187],[10.200293,47.363428],[10.158789,47.374268],[10.096484,47.37959],[10.066309,47.393359],[10.074219,47.428516],[10.059863,47.449072],[10.034082,47.473584],[9.971582,47.505322],[9.83916,47.552295],[9.748926,47.575537],[9.715137,47.550781],[9.650586,47.525879],[9.548926,47.534033],[9.524023,47.524219]]],[[[13.70918,54.382715],[13.73418,54.31543],[13.707324,54.281152],[13.594922,54.338184],[13.482031,54.337402],[13.414551,54.249561],[13.364355,54.24585],[13.190039,54.325635],[13.162109,54.364551],[13.156348,54.396924],[13.18125,54.508984],[13.17666,54.544238],[13.231445,54.582764],[13.239941,54.638428],[13.336816,54.697119],[13.422754,54.699316],[13.450098,54.649609],[13.491211,54.615381],[13.636035,54.577002],[13.657617,54.55957],[13.670703,54.535449],[13.60332,54.488184],[13.580469,54.463965],[13.601855,54.425146],[13.70918,54.382715]]],[[[14.211426,53.950342],[14.198242,53.919043],[14.213672,53.870752],[14.172168,53.874365],[14.04834,53.863086],[13.925781,53.879053],[13.902148,53.938965],[13.92168,53.996631],[13.872461,54.036279],[13.827148,54.05957],[13.82041,54.092822],[13.827734,54.127246],[14.038867,54.03457],[14.211426,53.950342]]],[[[11.282813,54.417969],[11.129297,54.416016],[11.070703,54.456006],[11.011719,54.466162],[11.043457,54.515479],[11.084961,54.533398],[11.233594,54.50127],[11.280273,54.438379],[11.282813,54.417969]]],[[[8.307715,54.786963],[8.284668,54.76709],[8.295703,54.908301],[8.405176,55.05874],[8.451465,55.055371],[8.404102,55.014746],[8.39043,54.986279],[8.371191,54.929395],[8.379883,54.899854],[8.62959,54.891748],[8.600586,54.865381],[8.347363,54.847607],[8.307715,54.786963]]],[[[8.587891,54.712695],[8.548926,54.688184],[8.453809,54.691064],[8.400391,54.714111],[8.417676,54.738672],[8.468164,54.757422],[8.509961,54.760303],[8.573438,54.74873],[8.587891,54.712695]]]]}},{"type":"Feature","properties":{"name":"Switzerland"},"geometry":{"type":"Polygon","coordinates":[[[9.524023,47.524219],[9.554395,47.511133],[9.625879,47.467041],[9.609082,47.391797],[9.527539,47.270752],[9.484277,47.172656],[9.479492,47.09751],[9.487695,47.062256],[9.502344,47.062744],[9.580273,47.057373],[9.619922,47.057471],[9.74502,47.037109],[9.845313,47.007373],[9.864648,46.975977],[9.877734,46.937695],[9.996875,46.885352],[10.133496,46.851514],[10.179785,46.862354],[10.349414,46.984766],[10.414941,46.964404],[10.45459,46.899414],[10.452832,46.864941],[10.406055,46.734863],[10.397949,46.665039],[10.438281,46.618848],[10.44248,46.582861],[10.430664,46.550049],[10.363086,46.54707],[10.272266,46.564844],[10.195508,46.621094],[10.1375,46.614355],[10.087012,46.599902],[10.06123,46.546777],[10.038281,46.483203],[10.045605,46.4479],[10.081934,46.420752],[10.109668,46.362842],[10.129883,46.287988],[10.145215,46.253516],[10.12832,46.238232],[10.080566,46.227979],[10.041016,46.238086],[9.97168,46.327686],[9.939258,46.361816],[9.884473,46.367773],[9.787793,46.346045],[9.639453,46.295898],[9.57959,46.296094],[9.528711,46.306201],[9.481055,46.348779],[9.440625,46.430811],[9.427637,46.482324],[9.399316,46.480664],[9.304395,46.495557],[9.260156,46.475195],[9.259766,46.39126],[9.251074,46.286768],[9.203418,46.219238],[9.070996,46.102441],[9.022363,46.051465],[9.003027,46.014893],[8.998926,45.983105],[9.019141,45.928125],[9.04668,45.875586],[9.02373,45.845703],[8.953711,45.830029],[8.904297,45.861963],[8.885156,45.918701],[8.778027,45.996191],[8.826758,46.061035],[8.818555,46.077148],[8.641699,46.110791],[8.56543,46.159814],[8.458398,46.245898],[8.438477,46.282861],[8.442969,46.402783],[8.436816,46.431885],[8.422559,46.446045],[8.370703,46.445117],[8.298535,46.403418],[8.231934,46.341211],[8.095703,46.271045],[8.081543,46.256006],[8.127246,46.187598],[8.125195,46.160937],[8.014258,46.051904],[7.993164,46.015918],[7.852344,45.947461],[7.787891,45.921826],[7.592578,45.972217],[7.538574,45.978174],[7.451563,45.944434],[7.32793,45.912354],[7.129004,45.88042],[7.055762,45.903809],[7.021094,45.925781],[7.003906,45.958838],[6.953711,46.017139],[6.897266,46.051758],[6.858008,46.089404],[6.805664,46.130664],[6.77207,46.165137],[6.816797,46.275195],[6.78418,46.313965],[6.767383,46.369189],[6.776074,46.406641],[6.758105,46.415771],[6.578223,46.437354],[6.428906,46.430518],[6.321875,46.393701],[6.234668,46.332617],[6.224219,46.319434],[6.22959,46.308447],[6.272949,46.252246],[6.199414,46.193066],[6.086621,46.147021],[6.006641,46.142334],[5.971484,46.151221],[5.97002,46.214697],[6.036133,46.238086],[6.095898,46.279395],[6.115918,46.337646],[6.123242,46.378613],[6.060254,46.428174],[6.067969,46.458545],[6.107031,46.516064],[6.129688,46.566992],[6.160742,46.611035],[6.285156,46.683057],[6.410156,46.75542],[6.429004,46.832275],[6.438574,46.925879],[6.45625,46.94834],[6.624805,47.004346],[6.666895,47.026514],[6.688086,47.058252],[6.820703,47.163184],[6.952051,47.267187],[6.978516,47.302051],[7.000586,47.32251],[7.000586,47.339453],[6.984082,47.352539],[6.921484,47.36123],[6.900391,47.394238],[6.968359,47.453223],[7.053418,47.489355],[7.136035,47.489844],[7.169238,47.473242],[7.16748,47.453711],[7.203125,47.432715],[7.265723,47.425781],[7.343164,47.433105],[7.42002,47.455176],[7.467383,47.507666],[7.494922,47.547363],[7.615625,47.592725],[7.698047,47.569873],[7.927051,47.563867],[8.09375,47.576172],[8.198242,47.606934],[8.327832,47.606934],[8.414746,47.5896],[8.430078,47.592139],[8.454004,47.596191],[8.477637,47.612695],[8.559473,47.624023],[8.570508,47.637793],[8.56709,47.651904],[8.552344,47.659131],[8.451758,47.651807],[8.413281,47.662695],[8.403418,47.687793],[8.435742,47.731348],[8.509863,47.766895],[8.572656,47.775635],[8.617871,47.766113],[8.72832,47.700049],[8.754785,47.698047],[8.770117,47.709912],[8.793066,47.716553],[8.831152,47.703613],[8.874023,47.662695],[8.881152,47.656396],[9.127539,47.670703],[9.182813,47.670703],[9.35,47.598926],[9.524023,47.524219]]]}},{"type":"Feature","properties":{"name":"Austria"},"geometry":{"type":"Polygon","coordinates":[[[9.527539,47.270752],[9.609082,47.391797],[9.625879,47.467041],[9.554395,47.511133],[9.524023,47.524219],[9.548926,47.534033],[9.650586,47.525879],[9.715137,47.550781],[9.748926,47.575537],[9.83916,47.552295],[9.971582,47.505322],[10.034082,47.473584],[10.059863,47.449072],[10.074219,47.428516],[10.066309,47.393359],[10.096484,47.37959],[10.158789,47.374268],[10.200293,47.363428],[10.185742,47.317187],[10.183008,47.278809],[10.240625,47.284131],[10.312793,47.313428],[10.369141,47.366064],[10.403906,47.416992],[10.430371,47.541064],[10.439453,47.551562],[10.482813,47.541797],[10.658691,47.547217],[10.741602,47.524121],[10.873047,47.520215],[10.870605,47.500781],[10.893945,47.470459],[10.952148,47.426709],[10.980859,47.398145],[11.041992,47.393115],[11.136035,47.408887],[11.191211,47.425195],[11.211914,47.413623],[11.297949,47.424902],[11.374121,47.460254],[11.392969,47.487158],[11.469922,47.506104],[11.573926,47.549756],[11.716797,47.583496],[12.185645,47.619531],[12.203809,47.646729],[12.196875,47.709082],[12.209277,47.718262],[12.268359,47.702734],[12.363184,47.688184],[12.435742,47.666113],[12.48291,47.637305],[12.526563,47.636133],[12.594238,47.656299],[12.68584,47.669336],[12.771387,47.639404],[12.796191,47.607031],[12.781152,47.59043],[12.782813,47.56416],[12.809375,47.542187],[12.878906,47.506445],[12.968066,47.475684],[13.014355,47.478076],[13.031543,47.508008],[13.047949,47.57915],[13.054102,47.655127],[13.033594,47.69873],[12.985547,47.709424],[12.928125,47.712842],[12.897656,47.721875],[12.908301,47.745801],[12.954199,47.807764],[12.953516,47.890625],[12.849902,47.984814],[12.760059,48.075977],[12.760352,48.106982],[12.814258,48.16084],[12.897461,48.203711],[13.082129,48.275098],[13.14043,48.289941],[13.215234,48.301904],[13.322852,48.33125],[13.374609,48.361377],[13.409375,48.394141],[13.459863,48.564551],[13.47168,48.571826],[13.486621,48.581836],[13.675195,48.523047],[13.692188,48.532764],[13.723926,48.542383],[13.785352,48.587451],[13.798828,48.62168],[13.797461,48.686426],[13.80293,48.74751],[13.814746,48.766943],[13.843164,48.759863],[13.924316,48.728027],[13.98877,48.692432],[14.049121,48.60249],[14.189844,48.578564],[14.367578,48.576221],[14.431055,48.61626],[14.488672,48.625537],[14.553906,48.61333],[14.691309,48.599219],[14.706641,48.671924],[14.785938,48.747363],[14.821875,48.774023],[14.922559,48.771387],[14.947363,48.827734],[14.972168,48.983936],[14.993457,49.001123],[15.066797,48.997852],[15.139746,48.969336],[15.161719,48.946289],[15.199609,48.948145],[15.252734,48.963867],[15.310938,48.974023],[15.40293,48.957373],[15.599414,48.886377],[15.700781,48.860449],[15.765039,48.86543],[15.825195,48.864453],[16.057227,48.754785],[16.219336,48.739404],[16.367285,48.738965],[16.414844,48.77207],[16.47793,48.800098],[16.543555,48.79624],[16.600977,48.781885],[16.712695,48.734229],[16.764453,48.722021],[16.833203,48.714307],[16.883691,48.703711],[16.92832,48.620898],[16.953125,48.598828],[16.948828,48.588574],[16.943359,48.550928],[16.904492,48.503516],[16.862695,48.441406],[16.86543,48.386914],[16.972656,48.198096],[17.067871,48.083252],[17.085938,48.039551],[17.147363,48.005957],[17.089063,47.963623],[17.077734,47.900879],[17.039941,47.872949],[17.030078,47.837109],[17.045898,47.804541],[17.045605,47.76377],[17.066602,47.707568],[16.973438,47.695312],[16.862695,47.697266],[16.823047,47.693994],[16.785938,47.678662],[16.747559,47.686279],[16.647461,47.739014],[16.590918,47.750537],[16.550977,47.747363],[16.521094,47.724463],[16.469629,47.695068],[16.421289,47.674463],[16.432129,47.656299],[16.639746,47.608887],[16.676563,47.536035],[16.636621,47.476611],[16.623047,47.447559],[16.574414,47.424658],[16.514746,47.404541],[16.442871,47.399512],[16.434375,47.367432],[16.462598,47.273145],[16.439746,47.252734],[16.416895,47.223437],[16.438379,47.145898],[16.482813,47.140381],[16.492676,47.122656],[16.484766,47.09126],[16.476953,47.057861],[16.46123,47.022461],[16.453418,47.006787],[16.423926,46.996973],[16.331836,47.002197],[16.252539,46.971924],[16.093066,46.863281],[16.037207,46.844824],[15.976855,46.801367],[15.980469,46.705859],[15.972266,46.697217],[15.957617,46.677637],[15.766895,46.711279],[15.760254,46.710742],[15.632617,46.698437],[15.545313,46.654639],[15.439258,46.629639],[15.216992,46.642969],[15.000684,46.625977],[14.949414,46.613232],[14.893262,46.605908],[14.840625,46.580469],[14.810547,46.54458],[14.756738,46.499121],[14.680176,46.463428],[14.596973,46.436084],[14.577148,46.412939],[14.549805,46.399707],[14.503516,46.417041],[14.465918,46.416113],[14.419922,46.42793],[14.267285,46.440723],[14.099512,46.461914],[14.019629,46.482178],[13.928809,46.498193],[13.831348,46.51123],[13.743945,46.514307],[13.7,46.520264],[13.490039,46.555566],[13.351562,46.55791],[13.16875,46.572656],[12.805566,46.625879],[12.699805,46.647461],[12.598633,46.654102],[12.479199,46.67251],[12.388281,46.702637],[12.330078,46.759814],[12.267969,46.835889],[12.154102,46.935254],[12.130762,46.984766],[12.165527,47.028174],[12.20127,47.060889],[12.197168,47.075],[12.169434,47.082129],[11.969531,47.039697],[11.775684,46.986084],[11.699414,46.984668],[11.625488,46.996582],[11.527539,46.997412],[11.433203,46.983057],[11.244434,46.975684],[11.133887,46.936182],[11.063477,46.859131],[11.025098,46.796973],[10.993262,46.777002],[10.927344,46.769482],[10.828906,46.775244],[10.759766,46.793311],[10.689258,46.846387],[10.579785,46.853711],[10.479395,46.855127],[10.452832,46.864941],[10.45459,46.899414],[10.414941,46.964404],[10.349414,46.984766],[10.179785,46.862354],[10.133496,46.851514],[9.996875,46.885352],[9.877734,46.937695],[9.864648,46.975977],[9.845313,47.007373],[9.74502,47.037109],[9.619922,47.057471],[9.580273,47.057373],[9.595703,47.07583],[9.610547,47.107129],[9.601172,47.13208],[9.571875,47.15791],[9.555762,47.185498],[9.551074,47.212256],[9.542188,47.234131],[9.536816,47.254639],[9.527539,47.270752]]]}},{"type":"Feature","properties":{"name":"Czechia"},"geometry":{"type":"Polygon","coordinates":[[[18.832227,49.510791],[18.807031,49.509229],[18.749707,49.493994],[18.676172,49.488477],[18.596484,49.491455],[18.53457,49.464697],[18.476074,49.421094],[18.41582,49.390918],[18.383105,49.363916],[18.364844,49.33623],[18.160938,49.257373],[18.132617,49.224561],[18.109961,49.179785],[18.100391,49.119336],[18.085938,49.065137],[18.050879,49.036523],[17.940723,49.011963],[17.913281,48.99873],[17.892676,48.971143],[17.830859,48.928613],[17.758496,48.888135],[17.625391,48.841846],[17.482617,48.827783],[17.296875,48.842822],[17.188477,48.860937],[17.135645,48.841064],[17.063281,48.780762],[16.985254,48.676904],[16.953125,48.598828],[16.92832,48.620898],[16.883691,48.703711],[16.833203,48.714307],[16.764453,48.722021],[16.712695,48.734229],[16.600977,48.781885],[16.543555,48.79624],[16.47793,48.800098],[16.414844,48.77207],[16.367285,48.738965],[16.219336,48.739404],[16.057227,48.754785],[15.825195,48.864453],[15.765039,48.86543],[15.700781,48.860449],[15.599414,48.886377],[15.40293,48.957373],[15.310938,48.974023],[15.252734,48.963867],[15.199609,48.948145],[15.161719,48.946289],[15.139746,48.969336],[15.066797,48.997852],[14.993457,49.001123],[14.972168,48.983936],[14.947363,48.827734],[14.922559,48.771387],[14.821875,48.774023],[14.785938,48.747363],[14.706641,48.671924],[14.691309,48.599219],[14.553906,48.61333],[14.488672,48.625537],[14.431055,48.61626],[14.367578,48.576221],[14.189844,48.578564],[14.049121,48.60249],[13.98877,48.692432],[13.924316,48.728027],[13.843164,48.759863],[13.814746,48.766943],[13.769922,48.815967],[13.684961,48.876709],[13.547656,48.959668],[13.440723,48.955566],[13.401172,48.977588],[13.383691,49.008105],[13.339063,49.060791],[13.28877,49.097461],[13.227832,49.11167],[13.140527,49.15835],[13.02373,49.260107],[12.916699,49.330469],[12.813379,49.329346],[12.747852,49.366211],[12.681152,49.414502],[12.632031,49.46123],[12.555762,49.574854],[12.500293,49.639697],[12.457031,49.679785],[12.408203,49.713184],[12.390527,49.739648],[12.450195,49.800146],[12.471875,49.830078],[12.497559,49.853076],[12.5125,49.877441],[12.512012,49.895801],[12.457617,49.955518],[12.38418,49.998584],[12.276465,50.042334],[12.207813,50.09751],[12.18252,50.148047],[12.175,50.17583],[12.127832,50.213428],[12.089746,50.268555],[12.089844,50.301758],[12.099219,50.310986],[12.134863,50.310937],[12.174805,50.288379],[12.231152,50.244873],[12.277344,50.181445],[12.305664,50.205713],[12.358594,50.273242],[12.452637,50.349805],[12.549023,50.393408],[12.635547,50.39707],[12.706445,50.409131],[12.76543,50.430957],[12.868262,50.422217],[12.942676,50.406445],[12.966797,50.416211],[12.99707,50.456055],[13.016406,50.490381],[13.181152,50.510498],[13.237695,50.576758],[13.269531,50.576416],[13.306055,50.586328],[13.341016,50.611426],[13.374609,50.621729],[13.401172,50.609326],[13.436133,50.601074],[13.472559,50.616943],[13.526563,50.692822],[13.556738,50.704639],[13.701367,50.716504],[13.898535,50.761279],[13.998438,50.801123],[14.096484,50.822754],[14.201758,50.86123],[14.369043,50.89873],[14.377051,50.914062],[14.299414,50.952588],[14.27334,50.976904],[14.255859,51.001855],[14.283203,51.029492],[14.319727,51.037793],[14.367285,51.02627],[14.507324,51.009863],[14.545703,50.993945],[14.559668,50.954932],[14.595215,50.918604],[14.623828,50.914746],[14.613574,50.855566],[14.658203,50.832617],[14.72334,50.814697],[14.766504,50.818311],[14.797461,50.842334],[14.809375,50.858984],[14.895801,50.861377],[14.98291,50.886572],[14.989941,50.927246],[14.984473,51.003418],[14.99375,51.014355],[15.125977,50.992871],[15.258594,50.958545],[15.277051,50.883008],[15.312598,50.845752],[15.354395,50.811768],[15.394629,50.796289],[15.463965,50.793848],[15.643945,50.748877],[15.730566,50.739697],[15.819238,50.708691],[15.893945,50.676904],[15.948535,50.670264],[15.973828,50.635449],[16.007227,50.611621],[16.066406,50.629932],[16.282227,50.655615],[16.359961,50.621387],[16.4125,50.585156],[16.419727,50.573633],[16.392285,50.54165],[16.379102,50.516895],[16.356641,50.500488],[16.28252,50.483008],[16.240723,50.454687],[16.210352,50.42373],[16.230762,50.394092],[16.291309,50.371875],[16.33418,50.366895],[16.350488,50.345215],[16.487598,50.248389],[16.59668,50.121924],[16.63916,50.102148],[16.679102,50.097461],[16.725293,50.116064],[16.778613,50.157031],[16.841797,50.186719],[16.895313,50.201953],[16.989648,50.236914],[16.993359,50.259717],[16.914746,50.345215],[16.869141,50.414502],[16.880078,50.427051],[16.980762,50.416113],[17.151953,50.37832],[17.415234,50.254785],[17.462305,50.254785],[17.55459,50.264062],[17.654688,50.284229],[17.702246,50.307178],[17.720117,50.298633],[17.735449,50.230762],[17.709277,50.193555],[17.589355,50.157471],[17.596289,50.139502],[17.627051,50.116406],[17.681055,50.100781],[17.746582,50.056787],[17.791699,50.006592],[17.83125,49.983301],[17.874805,49.972266],[17.983789,49.999072],[18.014648,50.020264],[18.02832,50.035254],[18.049512,50.031934],[18.087695,50.007275],[18.099219,49.992773],[18.205273,49.964746],[18.266309,49.930273],[18.305273,49.914062],[18.348438,49.929834],[18.516211,49.902393],[18.562402,49.879346],[18.577148,49.841113],[18.568848,49.81792],[18.594629,49.757812],[18.806934,49.613721],[18.829297,49.540137],[18.832227,49.510791]]]}},{"type":"Feature","properties":{"name":"Poland"},"geometry":{"type":"Polygon","coordinates":[[[23.605273,51.51792],[23.658887,51.448975],[23.679688,51.394922],[23.657617,51.35249],[23.664453,51.310059],[23.712207,51.265137],[23.863477,51.126221],[23.938086,50.992529],[23.985742,50.94043],[24.095801,50.872754],[24.105762,50.844971],[24.061621,50.819531],[24.025977,50.816162],[23.99707,50.809375],[23.978418,50.785596],[24.007324,50.760156],[24.046289,50.722803],[24.094727,50.617041],[24.089941,50.530469],[24.052637,50.508447],[24.00498,50.457031],[23.972656,50.410059],[23.711719,50.377344],[23.649023,50.327051],[23.506152,50.229834],[23.408594,50.173926],[23.264453,50.072852],[23.036328,49.899072],[22.952246,49.826367],[22.890723,49.76626],[22.706152,49.606201],[22.649414,49.539014],[22.660645,49.483691],[22.719922,49.353809],[22.732422,49.295166],[22.721973,49.240967],[22.702344,49.192725],[22.705664,49.171191],[22.760156,49.13623],[22.84707,49.08125],[22.852051,49.062744],[22.839746,49.038916],[22.809766,49.020752],[22.70127,49.039941],[22.57998,49.077197],[22.538672,49.072705],[22.473047,49.081299],[22.202539,49.153223],[22.020117,49.209521],[22.002148,49.246094],[21.967676,49.299072],[21.890137,49.343457],[21.712109,49.381934],[21.639648,49.411963],[21.350488,49.42876],[21.225,49.429443],[21.136133,49.417041],[21.079395,49.418262],[21.001172,49.339844],[20.947266,49.31709],[20.868457,49.314697],[20.799512,49.328662],[20.729004,49.369922],[20.616113,49.391699],[20.53457,49.381201],[20.474512,49.390186],[20.422656,49.392334],[20.404688,49.384082],[20.362988,49.385254],[20.302539,49.365527],[20.236523,49.337646],[20.163672,49.316406],[20.107617,49.270752],[20.057617,49.181299],[19.916113,49.221387],[19.868945,49.204004],[19.802246,49.192334],[19.756641,49.204395],[19.767383,49.235205],[19.787988,49.269971],[19.787012,49.318555],[19.773926,49.372168],[19.730078,49.3896],[19.66416,49.396045],[19.630273,49.406641],[19.62666,49.424365],[19.593066,49.447119],[19.534766,49.504785],[19.479688,49.576367],[19.441602,49.597705],[19.38623,49.563623],[19.302344,49.524854],[19.250195,49.511426],[19.149414,49.4],[18.968359,49.39624],[18.957227,49.448291],[18.938184,49.498291],[18.832227,49.510791],[18.829297,49.540137],[18.806934,49.613721],[18.594629,49.757812],[18.568848,49.81792],[18.577148,49.841113],[18.562402,49.879346],[18.516211,49.902393],[18.348438,49.929834],[18.305273,49.914062],[18.266309,49.930273],[18.205273,49.964746],[18.099219,49.992773],[18.087695,50.007275],[18.049512,50.031934],[18.02832,50.035254],[18.014648,50.020264],[17.983789,49.999072],[17.874805,49.972266],[17.83125,49.983301],[17.791699,50.006592],[17.746582,50.056787],[17.681055,50.100781],[17.627051,50.116406],[17.596289,50.139502],[17.589355,50.157471],[17.709277,50.193555],[17.735449,50.230762],[17.720117,50.298633],[17.702246,50.307178],[17.654688,50.284229],[17.55459,50.264062],[17.462305,50.254785],[17.415234,50.254785],[17.151953,50.37832],[16.980762,50.416113],[16.880078,50.427051],[16.869141,50.414502],[16.914746,50.345215],[16.993359,50.259717],[16.989648,50.236914],[16.895313,50.201953],[16.841797,50.186719],[16.778613,50.157031],[16.725293,50.116064],[16.679102,50.097461],[16.63916,50.102148],[16.59668,50.121924],[16.487598,50.248389],[16.350488,50.345215],[16.33418,50.366895],[16.291309,50.371875],[16.230762,50.394092],[16.210352,50.42373],[16.240723,50.454687],[16.28252,50.483008],[16.356641,50.500488],[16.379102,50.516895],[16.392285,50.54165],[16.419727,50.573633],[16.4125,50.585156],[16.359961,50.621387],[16.282227,50.655615],[16.066406,50.629932],[16.007227,50.611621],[15.973828,50.635449],[15.948535,50.670264],[15.893945,50.676904],[15.819238,50.708691],[15.730566,50.739697],[15.643945,50.748877],[15.463965,50.793848],[15.394629,50.796289],[15.354395,50.811768],[15.312598,50.845752],[15.277051,50.883008],[15.258594,50.958545],[15.125977,50.992871],[14.99375,51.014355],[14.984473,51.003418],[14.989941,50.927246],[14.98291,50.886572],[14.895801,50.861377],[14.809375,50.858984],[14.814258,50.871631],[14.91748,51.00874],[14.963867,51.095117],[15.016602,51.252734],[14.953125,51.377148],[14.935547,51.435352],[14.905957,51.46333],[14.724707,51.523877],[14.710938,51.544922],[14.738672,51.627148],[14.724902,51.661719],[14.681348,51.698193],[14.623926,51.770801],[14.60166,51.832373],[14.674902,51.904834],[14.692969,51.958008],[14.724805,52.030859],[14.748145,52.070801],[14.752539,52.081836],[14.70459,52.110205],[14.692383,52.150049],[14.705371,52.207471],[14.679883,52.25],[14.615625,52.277637],[14.573926,52.31416],[14.55459,52.359668],[14.569727,52.431104],[14.619434,52.528516],[14.514063,52.645605],[14.253711,52.78252],[14.128613,52.878223],[14.138867,52.932861],[14.193652,52.982324],[14.293164,53.026758],[14.368555,53.105566],[14.410938,53.199023],[14.412305,53.216748],[14.414551,53.283496],[14.29873,53.556445],[14.279883,53.624756],[14.266113,53.707129],[14.258887,53.729639],[14.487598,53.671875],[14.583496,53.639355],[14.571582,53.675879],[14.552148,53.707324],[14.564941,53.753516],[14.558398,53.823193],[14.350879,53.85874],[14.213672,53.870752],[14.198242,53.919043],[14.211426,53.950342],[14.249316,53.931934],[14.38418,53.924707],[14.715723,54.018311],[15.288379,54.139893],[15.9,54.253955],[16.042773,54.266357],[16.186328,54.290381],[16.239355,54.333057],[16.292285,54.361621],[16.375586,54.436865],[16.559766,54.553809],[16.885449,54.596387],[17.007031,54.651855],[17.261914,54.729541],[17.842969,54.816699],[18.085645,54.83584],[18.323438,54.838184],[18.535156,54.769434],[18.759277,54.68457],[18.799609,54.63335],[18.67832,54.665283],[18.501563,54.741504],[18.43623,54.744727],[18.587109,54.512891],[18.669629,54.430908],[18.836426,54.36958],[18.97627,54.348926],[19.407129,54.386084],[19.560156,54.434619],[19.604395,54.45918],[19.644238,54.44707],[19.924316,54.433984],[20.208203,54.420752],[20.664746,54.406641],[21.140527,54.391797],[21.63418,54.376465],[22.168457,54.359863],[22.731836,54.350098],[22.766211,54.356787],[22.82373,54.395801],[22.893945,54.390527],[22.976758,54.366357],[23.015527,54.34834],[23.031934,54.327881],[23.042188,54.304199],[23.0875,54.299463],[23.170313,54.281445],[23.282324,54.240332],[23.370117,54.200488],[23.453613,54.143457],[23.481348,54.079004],[23.483008,54.005957],[23.477637,53.958936],[23.484668,53.939795],[23.598926,53.599219],[23.789258,53.270947],[23.85918,53.112109],[23.887109,53.027539],[23.909375,52.904883],[23.916309,52.81875],[23.91543,52.770264],[23.90127,52.703613],[23.844727,52.664209],[23.47959,52.551562],[23.410938,52.516211],[23.30332,52.428369],[23.204102,52.337891],[23.18125,52.306982],[23.175098,52.286621],[23.196973,52.256934],[23.327148,52.208447],[23.458398,52.169531],[23.501172,52.140381],[23.597949,52.103076],[23.633301,52.06958],[23.652441,52.040381],[23.651074,51.972998],[23.607422,51.879785],[23.625684,51.809326],[23.581348,51.762402],[23.544824,51.710254],[23.539648,51.618896],[23.605273,51.51792]]]}},{"type":"Feature","properties":{"name":"Denmark"},"geometry":{"type":"MultiPolygon","coordinates":[[[[12.56875,55.785059],[12.571191,55.684961],[12.545215,55.655811],[12.507031,55.636621],[12.407129,55.61626],[12.320605,55.587842],[12.243457,55.537891],[12.215039,55.466504],[12.275391,55.414258],[12.385156,55.385645],[12.413086,55.286182],[12.322461,55.237109],[12.089941,55.188135],[12.065527,55.069922],[12.073047,54.976758],[12.068848,54.909033],[12.050391,54.815332],[11.862305,54.772607],[11.740918,54.915332],[11.739844,54.972461],[11.703613,55.03916],[11.696777,55.095996],[11.653809,55.186914],[11.475879,55.211523],[11.406836,55.214746],[11.310254,55.197852],[11.286328,55.204443],[11.170703,55.328613],[11.189746,55.465625],[11.128027,55.534766],[11.119531,55.566064],[11.120996,55.600732],[11.070312,55.629297],[11.008789,55.644434],[10.978906,55.721533],[11.049609,55.740234],[11.224414,55.731201],[11.275488,55.736475],[11.322266,55.752539],[11.463672,55.879297],[11.45957,55.907227],[11.474707,55.943457],[11.627734,55.956885],[11.695898,55.90791],[11.682227,55.829492],[11.690918,55.729004],[11.783594,55.70166],[11.819727,55.697656],[11.858301,55.771875],[11.885352,55.807959],[11.92207,55.828076],[11.93457,55.895898],[11.912793,55.937305],[11.866406,55.968164],[12.039648,56.052148],[12.218945,56.118652],[12.323242,56.122119],[12.428223,56.105859],[12.525781,56.083398],[12.578711,56.064062],[12.608398,56.033008],[12.542969,55.958984],[12.524805,55.918457],[12.56875,55.785059]]],[[[9.739746,54.825537],[9.725,54.825537],[9.66123,54.834375],[9.61582,54.85542],[9.49873,54.84043],[9.341992,54.806299],[9.25498,54.808008],[9.18584,54.844678],[8.90293,54.896924],[8.857227,54.901123],[8.670703,54.90332],[8.670313,54.903418],[8.661426,54.985937],[8.638281,55.045557],[8.572949,55.134277],[8.669824,55.155664],[8.651074,55.328564],[8.615918,55.418213],[8.345313,55.510303],[8.132129,55.599805],[8.181348,55.901172],[8.202344,55.982373],[8.121484,56.139893],[8.129883,56.321191],[8.163965,56.606885],[8.231738,56.618066],[8.281445,56.616699],[8.473145,56.56543],[8.55293,56.560303],[8.607617,56.514502],[8.67168,56.495654],[8.718066,56.544287],[8.736133,56.627441],[8.888086,56.735059],[8.994531,56.774805],[9.06709,56.793848],[9.140332,56.750439],[9.196387,56.70166],[9.209668,56.808398],[9.254883,57.011719],[9.110449,57.043652],[8.992773,57.016113],[8.876074,56.887256],[8.771973,56.725293],[8.603125,56.7104],[8.468359,56.664551],[8.34668,56.712109],[8.268262,56.754004],[8.266309,56.815332],[8.284082,56.852344],[8.427051,56.984424],[8.618555,57.111279],[8.811523,57.110059],[8.952246,57.150586],[9.036328,57.15542],[9.298828,57.146533],[9.433594,57.174316],[9.554297,57.232471],[9.815137,57.478418],[9.962305,57.580957],[10.259082,57.617041],[10.533301,57.7354],[10.609961,57.736914],[10.480957,57.648682],[10.460254,57.614551],[10.444629,57.562207],[10.537109,57.448535],[10.517578,57.379346],[10.524121,57.243213],[10.436914,57.172266],[10.338477,57.021338],[10.296094,56.999121],[10.287012,56.822949],[10.29668,56.780908],[10.282715,56.620508],[10.383594,56.554834],[10.490234,56.520508],[10.845898,56.521729],[10.882812,56.492871],[10.926172,56.443262],[10.894434,56.359033],[10.856445,56.295508],[10.753418,56.241992],[10.621191,56.2021],[10.538965,56.200342],[10.426953,56.276172],[10.37373,56.251562],[10.31875,56.212891],[10.22666,56.005371],[10.183008,55.865186],[10.159375,55.853809],[10.107324,55.874463],[10.017383,55.876074],[9.903711,55.842822],[9.962012,55.813086],[10.023633,55.761426],[9.999023,55.735547],[9.899023,55.707568],[9.810352,55.650977],[9.773242,55.608154],[9.661426,55.557471],[9.591113,55.493213],[9.625586,55.413574],[9.640234,55.343652],[9.670996,55.266406],[9.643262,55.204736],[9.504785,55.11626],[9.453711,55.039551],[9.572363,55.040527],[9.64541,55.022803],[9.688184,55.000146],[9.732324,54.968018],[9.705273,54.92832],[9.739746,54.825537]]],[[[10.645117,55.609814],[10.686816,55.557617],[10.738086,55.446338],[10.819238,55.321875],[10.785352,55.269775],[10.808398,55.203027],[10.785254,55.133398],[10.623828,55.052441],[10.442773,55.048779],[10.25459,55.087891],[9.98877,55.163184],[9.967383,55.205469],[9.930078,55.228906],[9.858984,55.357227],[9.860645,55.515479],[9.994238,55.535303],[10.286133,55.61084],[10.353613,55.598975],[10.424023,55.560352],[10.505078,55.558057],[10.622754,55.612842],[10.645117,55.609814]]],[[[11.361426,54.89165],[11.538379,54.82959],[11.658105,54.833154],[11.739551,54.807422],[11.758984,54.767676],[11.765918,54.679443],[11.680371,54.653711],[11.585938,54.662451],[11.457422,54.628857],[11.035547,54.773096],[11.041699,54.893359],[11.058594,54.940576],[11.258496,54.951807],[11.361426,54.89165]]],[[[10.734082,54.750732],[10.689746,54.745068],[10.629492,54.826074],[10.62168,54.851416],[10.69248,54.903271],[10.738281,54.962012],[10.856738,55.052197],[10.925,55.157861],[10.951074,55.156201],[10.920801,55.062109],[10.765234,54.799658],[10.734082,54.750732]]],[[[12.549219,54.965771],[12.511035,54.950879],[12.35752,54.961816],[12.184473,54.89248],[12.118848,54.914404],[12.143652,54.958691],[12.161719,54.974805],[12.219922,54.993604],[12.258789,55.021094],[12.274023,55.064111],[12.310059,55.040918],[12.417188,55.031201],[12.469531,55.01748],[12.513281,54.997314],[12.549219,54.965771]]],[[[12.665723,55.596533],[12.571582,55.554004],[12.550879,55.55625],[12.520313,55.6146],[12.569922,55.650098],[12.599219,55.680225],[12.62002,55.679346],[12.648438,55.646777],[12.665723,55.596533]]],[[[10.484375,54.847559],[10.417285,54.837158],[10.340527,54.858936],[10.215625,54.940967],[10.199902,54.962744],[10.265527,54.948828],[10.346973,54.905957],[10.413672,54.896826],[10.504883,54.860547],[10.484375,54.847559]]],[[[10.06123,54.886377],[9.957129,54.872461],[9.903906,54.896631],[9.80625,54.906006],[9.771191,55.059912],[9.78125,55.069043],[9.830371,55.058252],[9.998828,54.986475],[10.057715,54.90791],[10.06123,54.886377]]],[[[10.607324,55.783057],[10.590332,55.765088],[10.526953,55.783789],[10.520313,55.848486],[10.544336,55.906592],[10.516113,55.958545],[10.547168,55.991943],[10.636328,55.91416],[10.661719,55.877588],[10.627344,55.833887],[10.607324,55.783057]]],[[[11.052148,57.252539],[11.011426,57.229102],[10.873828,57.262256],[10.93457,57.308594],[11.085742,57.329932],[11.174512,57.3229],[11.076855,57.276904],[11.052148,57.252539]]],[[[15.087695,55.021875],[15.050781,55.004932],[14.885547,55.032959],[14.68418,55.102246],[14.713672,55.238037],[14.765332,55.296729],[15.132617,55.144531],[15.137109,55.087158],[15.087695,55.021875]]]]}},{"type":"Feature","properties":{"name":"Italy"},"geometry":{"type":"MultiPolygon","coordinates":[[[[7.021094,45.925781],[7.055762,45.903809],[7.129004,45.88042],[7.32793,45.912354],[7.451563,45.944434],[7.538574,45.978174],[7.592578,45.972217],[7.787891,45.921826],[7.852344,45.947461],[7.993164,46.015918],[8.014258,46.051904],[8.125195,46.160937],[8.127246,46.187598],[8.081543,46.256006],[8.095703,46.271045],[8.231934,46.341211],[8.298535,46.403418],[8.370703,46.445117],[8.422559,46.446045],[8.436816,46.431885],[8.442969,46.402783],[8.438477,46.282861],[8.458398,46.245898],[8.56543,46.159814],[8.641699,46.110791],[8.818555,46.077148],[8.826758,46.061035],[8.778027,45.996191],[8.885156,45.918701],[8.904297,45.861963],[8.953711,45.830029],[9.02373,45.845703],[9.04668,45.875586],[9.019141,45.928125],[8.998926,45.983105],[9.003027,46.014893],[9.022363,46.051465],[9.070996,46.102441],[9.203418,46.219238],[9.251074,46.286768],[9.259766,46.39126],[9.260156,46.475195],[9.304395,46.495557],[9.399316,46.480664],[9.427637,46.482324],[9.440625,46.430811],[9.481055,46.348779],[9.528711,46.306201],[9.57959,46.296094],[9.639453,46.295898],[9.787793,46.346045],[9.884473,46.367773],[9.939258,46.361816],[9.97168,46.327686],[10.041016,46.238086],[10.080566,46.227979],[10.12832,46.238232],[10.145215,46.253516],[10.129883,46.287988],[10.109668,46.362842],[10.081934,46.420752],[10.045605,46.4479],[10.038281,46.483203],[10.06123,46.546777],[10.087012,46.599902],[10.1375,46.614355],[10.195508,46.621094],[10.272266,46.564844],[10.363086,46.54707],[10.430664,46.550049],[10.44248,46.582861],[10.438281,46.618848],[10.397949,46.665039],[10.406055,46.734863],[10.452832,46.864941],[10.479395,46.855127],[10.579785,46.853711],[10.689258,46.846387],[10.759766,46.793311],[10.828906,46.775244],[10.927344,46.769482],[10.993262,46.777002],[11.025098,46.796973],[11.063477,46.859131],[11.133887,46.936182],[11.244434,46.975684],[11.433203,46.983057],[11.527539,46.997412],[11.625488,46.996582],[11.699414,46.984668],[11.775684,46.986084],[11.969531,47.039697],[12.169434,47.082129],[12.197168,47.075],[12.20127,47.060889],[12.165527,47.028174],[12.130762,46.984766],[12.154102,46.935254],[12.267969,46.835889],[12.330078,46.759814],[12.388281,46.702637],[12.479199,46.67251],[12.598633,46.654102],[12.699805,46.647461],[12.805566,46.625879],[13.16875,46.572656],[13.351562,46.55791],[13.490039,46.555566],[13.7,46.520264],[13.679688,46.462891],[13.637109,46.448535],[13.563281,46.415088],[13.478516,46.369189],[13.399512,46.317529],[13.378223,46.261621],[13.399609,46.224951],[13.420996,46.212305],[13.449805,46.223535],[13.491797,46.216602],[13.544727,46.196582],[13.63252,46.177051],[13.634961,46.157764],[13.616602,46.133105],[13.548047,46.089111],[13.486426,46.039551],[13.480273,46.009229],[13.487695,45.987109],[13.50918,45.973779],[13.600586,45.979785],[13.613965,45.96167],[13.569629,45.834131],[13.583398,45.812354],[13.663477,45.791992],[13.72168,45.761279],[13.831152,45.68042],[13.874707,45.614844],[13.844727,45.592871],[13.775977,45.581982],[13.719824,45.587598],[13.783301,45.627246],[13.62832,45.770947],[13.558203,45.770703],[13.465137,45.709961],[13.206348,45.771387],[13.156738,45.746582],[13.120117,45.6979],[13.030273,45.6375],[12.903027,45.610791],[12.76123,45.544287],[12.611719,45.497217],[12.497559,45.46167],[12.432129,45.46792],[12.536133,45.544922],[12.491797,45.546289],[12.353809,45.491992],[12.274316,45.446045],[12.248828,45.368848],[12.225684,45.241504],[12.286328,45.207715],[12.39248,45.039795],[12.523438,44.967969],[12.497949,44.899414],[12.463574,44.845215],[12.384473,44.79834],[12.319043,44.833105],[12.278906,44.832227],[12.24834,44.72251],[12.30498,44.429443],[12.396289,44.223877],[12.486816,44.134229],[12.691113,43.994727],[12.907031,43.921191],[13.295313,43.686084],[13.508203,43.61167],[13.56416,43.571289],[13.693262,43.389893],[13.804688,43.180371],[13.924902,42.851562],[14.010449,42.689551],[14.182715,42.506445],[14.540723,42.244287],[14.866113,42.052539],[15.16875,41.934033],[15.40498,41.913232],[15.964063,41.939453],[16.061523,41.928125],[16.164648,41.896191],[16.18916,41.814014],[16.15127,41.758496],[16.033691,41.700781],[15.91377,41.62085],[15.900488,41.512061],[16.012598,41.4354],[16.551855,41.232031],[17.103418,41.062158],[17.275195,40.975439],[17.474219,40.840576],[17.95498,40.655176],[18.036133,40.564941],[18.328223,40.37085],[18.460645,40.221045],[18.48584,40.104834],[18.422559,39.986865],[18.393457,39.903613],[18.34375,39.821387],[18.219336,39.852539],[18.07793,39.936963],[17.865039,40.280176],[17.476172,40.314941],[17.395801,40.340234],[17.257715,40.399072],[17.249414,40.437891],[17.215332,40.486426],[17.17998,40.502783],[17.03125,40.513477],[16.928223,40.458057],[16.807031,40.326465],[16.669629,40.137207],[16.52998,39.859668],[16.521875,39.747559],[16.597754,39.638916],[16.824316,39.57832],[16.999219,39.481592],[17.114551,39.380615],[17.122949,39.136572],[17.174609,38.998096],[17.098535,38.919336],[16.951465,38.939795],[16.755469,38.889697],[16.616699,38.800146],[16.558984,38.714795],[16.574219,38.493555],[16.545605,38.409082],[16.282422,38.249561],[16.144141,38.086377],[16.109766,38.018652],[16.056836,37.941846],[15.724512,37.939111],[15.645801,38.034229],[15.643066,38.175391],[15.700195,38.262305],[15.822363,38.302979],[15.904785,38.483496],[15.878906,38.613916],[15.926953,38.671729],[15.972363,38.712598],[16.065527,38.736426],[16.196777,38.759229],[16.209961,38.941113],[16.107422,39.023828],[16.071484,39.139453],[16.023633,39.353613],[15.854395,39.626514],[15.763672,39.870068],[15.692773,39.990186],[15.585156,40.052832],[15.390918,40.052148],[15.294531,40.07002],[14.950879,40.239014],[14.926953,40.264746],[14.929102,40.30957],[14.986133,40.37749],[14.947656,40.469336],[14.906934,40.556055],[14.839551,40.62998],[14.765723,40.668408],[14.61123,40.644775],[14.556934,40.626416],[14.459375,40.632715],[14.382715,40.599854],[14.339941,40.598828],[14.460547,40.728711],[14.428125,40.759326],[14.308887,40.812646],[14.147168,40.820703],[14.102344,40.827148],[14.075879,40.793945],[14.044336,40.812256],[14.047656,40.870312],[13.859766,41.12998],[13.733398,41.235645],[13.669727,41.254492],[13.554785,41.232178],[13.361914,41.278516],[13.246875,41.288867],[13.183398,41.277686],[13.088672,41.243848],[13.041016,41.266211],[13.024219,41.300928],[12.849219,41.40874],[12.630859,41.469678],[12.205664,41.812646],[12.075293,41.940869],[11.807031,42.082031],[11.637305,42.287549],[11.498438,42.362939],[11.296289,42.423291],[11.249707,42.415723],[11.188867,42.393115],[11.141211,42.389893],[11.103223,42.416602],[11.141797,42.444092],[11.184766,42.456592],[11.167773,42.535156],[10.937793,42.738721],[10.803125,42.804297],[10.765137,42.844678],[10.737109,42.899951],[10.708398,42.936328],[10.644629,42.957178],[10.590234,42.953613],[10.514844,42.967529],[10.517285,43.065137],[10.532324,43.140137],[10.520801,43.203809],[10.447559,43.371191],[10.320508,43.513086],[10.245801,43.8521],[10.188086,43.94751],[10.047656,44.019971],[9.730859,44.101172],[9.289355,44.319238],[9.195996,44.322998],[8.930371,44.407764],[8.76582,44.422314],[8.551953,44.346143],[8.292383,44.136523],[8.081641,43.918945],[8.00498,43.876758],[7.733301,43.802588],[7.493164,43.767139],[7.490527,43.822949],[7.482031,43.864893],[7.522656,43.911084],[7.589648,43.96543],[7.651465,44.033643],[7.677148,44.083154],[7.665039,44.116016],[7.637207,44.164844],[7.599414,44.168359],[7.370898,44.127393],[7.318555,44.137988],[7.149414,44.201709],[6.967285,44.280029],[6.900195,44.335742],[6.874805,44.392041],[6.893848,44.428174],[6.878613,44.463281],[6.842969,44.510693],[6.875195,44.564551],[6.931934,44.631641],[6.960352,44.677148],[7.00791,44.688965],[7.030664,44.716699],[6.992676,44.827295],[6.972852,44.84502],[6.939844,44.85874],[6.889355,44.860303],[6.801074,44.883154],[6.738184,44.921387],[6.724707,44.972998],[6.691406,45.022607],[6.634766,45.068164],[6.627734,45.117969],[6.692285,45.144287],[6.780371,45.145312],[6.842285,45.135645],[6.98125,45.215576],[7.032422,45.222607],[7.07832,45.239941],[7.116797,45.349023],[7.146387,45.381738],[7.153418,45.400928],[7.126074,45.423682],[7.013672,45.500488],[6.962402,45.580566],[6.881445,45.670361],[6.80625,45.71001],[6.790918,45.740869],[6.78916,45.780078],[6.804492,45.814551],[6.94082,45.868359],[7.021094,45.925781]],[[12.43916,41.898389],[12.438379,41.906201],[12.430566,41.905469],[12.427539,41.900732],[12.430566,41.897559],[12.43916,41.898389]],[[12.485254,43.901416],[12.514648,43.952979],[12.503711,43.989746],[12.441113,43.982422],[12.396875,43.93457],[12.426367,43.894092],[12.485254,43.901416]]],[[[10.395117,42.858154],[10.42832,42.819189],[10.432227,42.796582],[10.409961,42.770996],[10.419336,42.713184],[10.335645,42.761133],[10.208984,42.736914],[10.13125,42.742041],[10.109766,42.785059],[10.127539,42.810303],[10.248242,42.815771],[10.285742,42.828076],[10.358984,42.822314],[10.395117,42.858154]]],[[[13.938281,40.705615],[13.893652,40.696973],[13.867676,40.70874],[13.853516,40.724072],[13.871191,40.761816],[13.962109,40.739404],[13.96084,40.718164],[13.938281,40.705615]]],[[[12.05127,36.757031],[12.00332,36.745996],[11.940625,36.780371],[11.936426,36.828613],[11.948047,36.843066],[12.024219,36.820947],[12.048047,36.776367],[12.05127,36.757031]]],[[[15.576563,38.220312],[15.508887,38.106641],[15.475684,38.062939],[15.234473,37.784814],[15.206836,37.720557],[15.189844,37.650732],[15.164844,37.589551],[15.131055,37.531885],[15.099512,37.458594],[15.105664,37.375488],[15.116992,37.334717],[15.145996,37.308008],[15.193652,37.282861],[15.230273,37.244336],[15.174121,37.20918],[15.236035,37.138721],[15.288672,37.096924],[15.295703,37.055176],[15.294531,37.013281],[15.185156,36.934814],[15.142383,36.891602],[15.11582,36.839258],[15.104297,36.785254],[15.116309,36.736475],[15.112598,36.687842],[15.002441,36.693896],[14.889648,36.723535],[14.775977,36.7104],[14.614355,36.766602],[14.555469,36.776758],[14.501855,36.798682],[14.367285,36.972852],[14.259082,37.046436],[14.142969,37.103662],[14.024316,37.107129],[13.905469,37.100635],[13.800586,37.135889],[13.587109,37.25415],[13.360938,37.34873],[13.264941,37.410352],[13.221094,37.451807],[13.169922,37.479297],[13.040332,37.506543],[12.924121,37.570508],[12.871191,37.575195],[12.757324,37.567383],[12.699023,37.571826],[12.640234,37.594336],[12.526758,37.669531],[12.454395,37.773779],[12.435547,37.819775],[12.486816,37.938721],[12.547656,38.05293],[12.60166,38.084961],[12.664355,38.10791],[12.702344,38.141699],[12.734375,38.183057],[12.850684,38.063721],[12.902734,38.034863],[12.955469,38.041309],[13.049023,38.084082],[13.056836,38.130908],[13.159961,38.190332],[13.291113,38.191455],[13.35166,38.180518],[13.383496,38.126807],[13.433496,38.110254],[13.491309,38.103125],[13.681543,38.000732],[13.734863,37.984033],[13.788867,37.981201],[13.936621,38.02417],[14.05,38.040527],[14.287695,38.016846],[14.416211,38.042578],[14.505957,38.045508],[14.636719,38.085059],[14.737207,38.150781],[14.789648,38.166992],[14.845898,38.17168],[14.981934,38.167578],[15.11875,38.152734],[15.176074,38.168066],[15.224023,38.211035],[15.27959,38.230371],[15.340723,38.217334],[15.49873,38.290869],[15.568359,38.295898],[15.634668,38.267578],[15.576563,38.220312]]],[[[9.632031,40.882031],[9.682031,40.818115],[9.794336,40.556201],[9.805273,40.499561],[9.782813,40.441504],[9.754199,40.400293],[9.642969,40.268408],[9.659473,40.159229],[9.700781,40.091797],[9.706738,40.017041],[9.686035,39.924365],[9.616992,39.354395],[9.583594,39.253564],[9.5625,39.166016],[9.486328,39.139551],[9.388086,39.167529],[9.26416,39.216797],[9.206934,39.213818],[9.149316,39.196973],[9.101758,39.211279],[9.056348,39.23916],[9.022656,39.043262],[8.966602,38.963721],[8.881348,38.912891],[8.801172,38.909668],[8.718555,38.926709],[8.648535,38.926562],[8.59541,38.964307],[8.55332,39.030322],[8.48623,39.110498],[8.418164,39.205713],[8.410742,39.291797],[8.399121,39.481592],[8.418652,39.523047],[8.44707,39.562793],[8.461035,39.647705],[8.451172,39.72168],[8.471094,39.748096],[8.510742,39.72168],[8.540527,39.731592],[8.538672,39.769678],[8.547754,39.839209],[8.495898,39.897461],[8.407813,39.917236],[8.399316,39.978174],[8.408594,40.037646],[8.455078,40.077588],[8.470801,40.130713],[8.471289,40.292676],[8.40918,40.352344],[8.385352,40.442676],[8.353223,40.500537],[8.295508,40.558643],[8.230273,40.605957],[8.189941,40.651611],[8.180859,40.771045],[8.203809,40.870703],[8.224219,40.91333],[8.245215,40.907031],[8.310156,40.85752],[8.363281,40.846338],[8.468457,40.834326],[8.571875,40.850195],[8.698926,40.895264],[8.821191,40.949902],[8.998145,41.110352],[9.107227,41.14292],[9.163086,41.185156],[9.182129,41.242188],[9.228418,41.25708],[9.283008,41.20166],[9.350781,41.195898],[9.455176,41.150146],[9.500195,41.106348],[9.53877,41.053662],[9.575684,41.030518],[9.615332,41.017285],[9.621191,41.004883],[9.589746,40.99248],[9.553711,40.932129],[9.574023,40.914746],[9.632031,40.882031]]],[[[8.478906,39.067529],[8.421484,38.968652],[8.360938,39.038672],[8.358594,39.098779],[8.366797,39.115918],[8.440625,39.090625],[8.478906,39.067529]]],[[[8.286035,41.039844],[8.252734,40.994141],[8.205664,40.997461],[8.224023,41.031299],[8.267383,41.099121],[8.320215,41.121875],[8.34375,41.101611],[8.318945,41.062744],[8.286035,41.039844]]]]}},{"type":"Feature","properties":{"name":"Slovenia"},"geometry":{"type":"Polygon","coordinates":[[[16.516211,46.499902],[16.427637,46.524414],[16.321191,46.534619],[16.301172,46.521387],[16.258398,46.50791],[16.236719,46.483838],[16.25332,46.389111],[16.227441,46.372852],[16.106445,46.382227],[16.066504,46.371338],[16.000684,46.305371],[15.933301,46.277637],[15.847559,46.257861],[15.784277,46.233984],[15.704199,46.213232],[15.635938,46.200732],[15.608984,46.171924],[15.592578,46.13999],[15.596875,46.109229],[15.666211,46.048486],[15.675586,45.983691],[15.668066,45.904443],[15.652148,45.862158],[15.624805,45.834033],[15.454102,45.797607],[15.277051,45.732617],[15.272949,45.717725],[15.353711,45.659912],[15.356934,45.645508],[15.290137,45.612646],[15.283594,45.579687],[15.291211,45.541553],[15.32666,45.502295],[15.339453,45.467041],[15.24209,45.441406],[15.110449,45.450781],[14.95459,45.499902],[14.9,45.492676],[14.84707,45.467334],[14.793066,45.478223],[14.733594,45.508496],[14.649512,45.571484],[14.608594,45.610107],[14.591797,45.65127],[14.568848,45.657227],[14.533984,45.645264],[14.505176,45.595215],[14.427344,45.505762],[14.369922,45.481445],[14.283008,45.486621],[14.16123,45.485156],[14.085547,45.477832],[13.992773,45.509424],[13.970313,45.503369],[13.970117,45.482617],[13.935645,45.449805],[13.878711,45.428369],[13.615234,45.476758],[13.57793,45.516895],[13.637305,45.535937],[13.719824,45.587598],[13.775977,45.581982],[13.844727,45.592871],[13.874707,45.614844],[13.831152,45.68042],[13.72168,45.761279],[13.663477,45.791992],[13.583398,45.812354],[13.569629,45.834131],[13.613965,45.96167],[13.600586,45.979785],[13.50918,45.973779],[13.487695,45.987109],[13.480273,46.009229],[13.486426,46.039551],[13.548047,46.089111],[13.616602,46.133105],[13.634961,46.157764],[13.63252,46.177051],[13.544727,46.196582],[13.491797,46.216602],[13.449805,46.223535],[13.420996,46.212305],[13.399609,46.224951],[13.378223,46.261621],[13.399512,46.317529],[13.478516,46.369189],[13.563281,46.415088],[13.637109,46.448535],[13.679688,46.462891],[13.7,46.520264],[13.743945,46.514307],[13.831348,46.51123],[13.928809,46.498193],[14.019629,46.482178],[14.099512,46.461914],[14.267285,46.440723],[14.419922,46.42793],[14.465918,46.416113],[14.503516,46.417041],[14.549805,46.399707],[14.577148,46.412939],[14.596973,46.436084],[14.680176,46.463428],[14.756738,46.499121],[14.810547,46.54458],[14.840625,46.580469],[14.893262,46.605908],[14.949414,46.613232],[15.000684,46.625977],[15.216992,46.642969],[15.439258,46.629639],[15.545313,46.654639],[15.632617,46.698437],[15.760254,46.710742],[15.766895,46.711279],[15.957617,46.677637],[15.972266,46.697217],[15.980469,46.705859],[15.976855,46.801367],[16.037207,46.844824],[16.093066,46.863281],[16.283594,46.857275],[16.308496,46.827979],[16.318457,46.78252],[16.335449,46.721631],[16.367188,46.704785],[16.38457,46.680811],[16.38125,46.638672],[16.418457,46.607227],[16.505664,46.52207],[16.516211,46.499902]]]}},{"type":"Feature","properties":{"name":"Croatia"},"geometry":{"type":"MultiPolygon","coordinates":[[[[13.57793,45.516895],[13.615234,45.476758],[13.878711,45.428369],[13.935645,45.449805],[13.970117,45.482617],[13.970313,45.503369],[13.992773,45.509424],[14.085547,45.477832],[14.16123,45.485156],[14.283008,45.486621],[14.369922,45.481445],[14.427344,45.505762],[14.505176,45.595215],[14.533984,45.645264],[14.568848,45.657227],[14.591797,45.65127],[14.608594,45.610107],[14.649512,45.571484],[14.733594,45.508496],[14.793066,45.478223],[14.84707,45.467334],[14.9,45.492676],[14.95459,45.499902],[15.110449,45.450781],[15.24209,45.441406],[15.339453,45.467041],[15.32666,45.502295],[15.291211,45.541553],[15.283594,45.579687],[15.290137,45.612646],[15.356934,45.645508],[15.353711,45.659912],[15.272949,45.717725],[15.277051,45.732617],[15.454102,45.797607],[15.624805,45.834033],[15.652148,45.862158],[15.668066,45.904443],[15.675586,45.983691],[15.666211,46.048486],[15.596875,46.109229],[15.592578,46.13999],[15.608984,46.171924],[15.635938,46.200732],[15.704199,46.213232],[15.784277,46.233984],[15.847559,46.257861],[15.933301,46.277637],[16.000684,46.305371],[16.066504,46.371338],[16.106445,46.382227],[16.227441,46.372852],[16.25332,46.389111],[16.236719,46.483838],[16.258398,46.50791],[16.301172,46.521387],[16.321191,46.534619],[16.427637,46.524414],[16.516211,46.499902],[16.569922,46.48501],[16.748047,46.416406],[16.871484,46.339307],[16.939941,46.253662],[17.032715,46.187305],[17.149609,46.140332],[17.242188,46.076611],[17.310645,45.996143],[17.406348,45.951074],[17.529199,45.941309],[17.607031,45.91377],[17.639648,45.868359],[17.706445,45.827246],[17.807129,45.79043],[17.963867,45.770264],[18.263965,45.765479],[18.290625,45.764453],[18.358301,45.753027],[18.437305,45.767334],[18.533594,45.796143],[18.564648,45.813281],[18.666016,45.907471],[18.721777,45.899365],[18.833008,45.91084],[18.900293,45.931738],[18.905371,45.931738],[18.901074,45.907617],[18.893555,45.865527],[18.839063,45.835742],[18.894531,45.76709],[18.947266,45.655811],[18.917871,45.60083],[18.953711,45.558008],[19.055078,45.527246],[19.064258,45.51499],[19.033301,45.502197],[19.007617,45.46582],[19.004688,45.399512],[19.093066,45.336914],[19.272852,45.277979],[19.330273,45.268066],[19.352246,45.24541],[19.382324,45.230615],[19.4,45.2125],[19.400977,45.189062],[19.388086,45.172998],[19.303027,45.167285],[19.205957,45.167773],[19.136914,45.19624],[19.130762,45.175488],[19.129688,45.151709],[19.062891,45.137207],[19.1,44.973779],[19.085254,44.926758],[19.060547,44.910986],[19.037598,44.917529],[19.00957,44.919385],[18.995508,44.904004],[19.007129,44.869189],[18.941309,44.865186],[18.836426,44.883252],[18.788379,44.914893],[18.780176,44.947217],[18.779395,44.977246],[18.746094,45.026514],[18.662598,45.077441],[18.488281,45.08584],[18.423926,45.102002],[18.357617,45.120557],[18.284961,45.134277],[18.217969,45.13291],[18.137207,45.119385],[17.996289,45.141797],[17.948633,45.111865],[17.874414,45.077246],[17.812793,45.078125],[17.690137,45.158398],[17.653516,45.163477],[17.546289,45.122559],[17.502637,45.120361],[17.469141,45.133301],[17.324121,45.163965],[17.258691,45.170557],[17.210645,45.156055],[17.125391,45.171777],[16.918652,45.276562],[16.79082,45.196875],[16.530664,45.216699],[16.453516,45.162012],[16.365039,45.05835],[16.293359,45.008838],[16.231055,45.026611],[16.157324,45.072217],[16.02832,45.1896],[15.963184,45.210791],[15.888281,45.215723],[15.822852,45.202783],[15.788086,45.178955],[15.761523,45.00752],[15.737988,44.856396],[15.736621,44.76582],[15.880078,44.681934],[16.049023,44.537598],[16.103418,44.520996],[16.130273,44.47373],[16.169824,44.352002],[16.214258,44.215137],[16.300098,44.124512],[16.377539,44.059619],[16.47207,44.002588],[16.590527,43.913184],[16.687695,43.815039],[16.713477,43.778809],[16.901855,43.649023],[17.08457,43.516553],[17.248047,43.470215],[17.273828,43.445752],[17.275293,43.343848],[17.293066,43.305615],[17.402246,43.198926],[17.624805,43.042773],[17.650488,43.006592],[17.657813,42.980078],[17.643457,42.959766],[17.585156,42.938379],[17.537305,42.962256],[17.329883,43.114893],[17.129395,43.211133],[16.903125,43.392432],[16.600293,43.464062],[16.393945,43.543359],[16.268945,43.53125],[16.131055,43.506299],[16.045996,43.505518],[15.985547,43.519775],[15.942578,43.568945],[15.949121,43.606982],[15.941504,43.656641],[15.820605,43.735937],[15.655664,43.811279],[15.499414,43.908789],[15.18584,44.172119],[15.122949,44.256787],[15.184668,44.2729],[15.231348,44.271436],[15.284277,44.288818],[15.369727,44.289258],[15.470996,44.271973],[15.381348,44.328271],[15.269824,44.383496],[14.981348,44.60293],[14.895215,44.706592],[14.885254,44.818262],[14.906543,44.971387],[14.85459,45.081006],[14.632031,45.2229],[14.550488,45.297705],[14.386133,45.342139],[14.312695,45.337793],[14.268555,45.28252],[14.236328,45.159668],[14.090625,44.997607],[14.041992,44.927197],[13.96582,44.835645],[13.899805,44.829346],[13.860742,44.837402],[13.74248,44.991504],[13.629297,45.108203],[13.613477,45.163428],[13.60332,45.231396],[13.517188,45.481787],[13.57793,45.516895]]],[[[16.650684,42.996582],[16.835547,42.968652],[16.971094,42.981494],[17.093652,42.964355],[17.169824,42.932617],[17.188281,42.917041],[17.089355,42.914893],[16.977539,42.927783],[16.850684,42.895508],[16.738867,42.912744],[16.696387,42.933691],[16.666309,42.959912],[16.650684,42.996582]]],[[[17.194043,43.125781],[17.124121,43.11543],[16.679199,43.123145],[16.549805,43.143896],[16.405859,43.197363],[16.376465,43.21377],[16.521387,43.229248],[16.655957,43.21377],[16.697266,43.174951],[17.061133,43.143896],[17.194043,43.125781]]],[[[16.785254,43.270654],[16.627441,43.268066],[16.490332,43.286182],[16.423145,43.317236],[16.428125,43.343408],[16.448926,43.387061],[16.601562,43.381885],[16.834375,43.35083],[16.891309,43.314648],[16.873633,43.297949],[16.785254,43.270654]]],[[[15.231055,44.062305],[15.24668,44.027051],[15.121875,44.093311],[15.074609,44.137842],[15.06582,44.157666],[15.231055,44.062305]]],[[[14.810254,44.977051],[14.687012,44.955615],[14.62832,44.993945],[14.612988,45.025439],[14.511719,45.0354],[14.450391,45.079199],[14.437891,45.098633],[14.524609,45.146826],[14.571094,45.224756],[14.62998,45.178027],[14.701172,45.090039],[14.73916,45.065479],[14.810254,44.977051]]],[[[14.831445,44.758936],[14.856641,44.714844],[14.7625,44.754639],[14.678223,44.769873],[14.660352,44.799805],[14.672461,44.824365],[14.690527,44.848145],[14.754199,44.844824],[14.76377,44.821387],[14.831445,44.758936]]],[[[15.188477,44.335742],[15.162598,44.30918],[15.097949,44.358154],[15.038574,44.393018],[14.996094,44.434326],[14.912793,44.48584],[14.884668,44.544727],[14.760449,44.664746],[14.741895,44.697363],[14.803809,44.648682],[14.855371,44.618262],[14.898047,44.61084],[15.006445,44.534229],[15.112988,44.435742],[15.239941,44.350195],[15.213574,44.347559],[15.188477,44.335742]]],[[[15.18877,43.922363],[15.203027,43.907715],[15.20166,43.897754],[15.149805,43.911816],[15.13584,43.907275],[14.891309,44.125537],[14.865039,44.167969],[14.952539,44.117188],[15.18877,43.922363]]],[[[15.371387,43.973828],[15.437207,43.899512],[15.374219,43.914795],[15.308594,43.960791],[15.27002,44.010742],[15.371387,43.973828]]],[[[14.488086,44.660059],[14.480371,44.62124],[14.419531,44.670312],[14.388867,44.758301],[14.312402,44.900391],[14.302539,44.94043],[14.342188,44.979932],[14.340039,45.019971],[14.28584,45.144629],[14.33125,45.16499],[14.358203,45.167432],[14.369141,45.080957],[14.39375,45.03125],[14.467383,44.970215],[14.452539,44.869189],[14.467578,44.725342],[14.48252,44.693359],[14.488086,44.660059]]],[[[17.607813,42.769043],[17.744238,42.700342],[17.344141,42.790381],[17.389551,42.798633],[17.431934,42.800391],[17.607813,42.769043]]],[[[18.436328,42.559717],[18.438086,42.522949],[18.47666,42.481104],[18.51748,42.43291],[18.333008,42.527881],[18.160645,42.634033],[17.823828,42.797412],[17.584961,42.837158],[17.258203,42.968457],[17.04541,43.014893],[17.126465,43.025586],[17.219824,43.025879],[17.723633,42.850684],[17.667578,42.897119],[17.740234,42.915479],[17.801953,42.902246],[17.841309,42.845068],[17.918848,42.807422],[18.044531,42.74126],[18.123926,42.690576],[18.304004,42.599414],[18.346582,42.58667],[18.436328,42.559717]]]]}},{"type":"Feature","properties":{"name":"Hungary"},"geometry":{"type":"Polygon","coordinates":[[[22.131836,48.405322],[22.227148,48.413428],[22.231152,48.412158],[22.253711,48.407373],[22.269434,48.360889],[22.272168,48.358008],[22.295117,48.327295],[22.316699,48.286621],[22.350195,48.256055],[22.423828,48.243311],[22.520117,48.205371],[22.582422,48.134033],[22.676367,48.104395],[22.683105,48.103613],[22.701563,48.107031],[22.769141,48.109619],[22.782227,48.095215],[22.83623,48.060303],[22.857227,48.029541],[22.846484,47.99707],[22.856055,47.960303],[22.87666,47.947266],[22.851758,47.922559],[22.676758,47.799023],[22.608398,47.766309],[22.562891,47.75957],[22.491406,47.772559],[22.41748,47.762646],[22.351465,47.73623],[22.290625,47.727832],[22.244629,47.696387],[22.185059,47.629053],[22.111914,47.572021],[22.037988,47.536621],[21.999707,47.505029],[21.995313,47.395703],[21.954297,47.364258],[21.899219,47.332568],[21.869336,47.30459],[21.785449,47.138135],[21.721777,47.084814],[21.661426,47.043896],[21.651465,47.006543],[21.652637,46.96377],[21.58418,46.878369],[21.494434,46.789746],[21.477051,46.753369],[21.49707,46.704297],[21.411035,46.647852],[21.361328,46.620752],[21.320215,46.607812],[21.294531,46.572461],[21.252246,46.486377],[21.263281,46.447754],[21.264551,46.412305],[21.191797,46.391553],[21.17041,46.352686],[21.151953,46.304346],[21.12168,46.282422],[21.039844,46.242236],[20.837012,46.259717],[20.760254,46.24624],[20.737402,46.21748],[20.732715,46.194434],[20.707422,46.172803],[20.661035,46.145654],[20.613672,46.133496],[20.508105,46.166943],[20.280957,46.133008],[20.241797,46.108594],[20.210156,46.126025],[20.161426,46.141895],[19.934082,46.161475],[19.844434,46.145898],[19.724512,46.151904],[19.613477,46.169189],[19.530762,46.155176],[19.45752,46.087354],[19.421289,46.064453],[19.392871,46.049805],[19.330273,46.028516],[19.278125,46.002881],[19.208398,45.984424],[19.146289,45.987012],[19.087305,46.016162],[19.066211,46.009521],[19.047656,45.982666],[19.015723,45.959717],[18.927832,45.931396],[18.905371,45.931738],[18.900293,45.931738],[18.833008,45.91084],[18.721777,45.899365],[18.666016,45.907471],[18.564648,45.813281],[18.533594,45.796143],[18.437305,45.767334],[18.358301,45.753027],[18.290625,45.764453],[18.263965,45.765479],[17.963867,45.770264],[17.807129,45.79043],[17.706445,45.827246],[17.639648,45.868359],[17.607031,45.91377],[17.529199,45.941309],[17.406348,45.951074],[17.310645,45.996143],[17.242188,46.076611],[17.149609,46.140332],[17.032715,46.187305],[16.939941,46.253662],[16.871484,46.339307],[16.748047,46.416406],[16.569922,46.48501],[16.516211,46.499902],[16.505664,46.52207],[16.418457,46.607227],[16.38125,46.638672],[16.38457,46.680811],[16.367188,46.704785],[16.335449,46.721631],[16.318457,46.78252],[16.308496,46.827979],[16.283594,46.857275],[16.093066,46.863281],[16.252539,46.971924],[16.331836,47.002197],[16.423926,46.996973],[16.453418,47.006787],[16.46123,47.022461],[16.476953,47.057861],[16.484766,47.09126],[16.492676,47.122656],[16.482813,47.140381],[16.438379,47.145898],[16.416895,47.223437],[16.439746,47.252734],[16.462598,47.273145],[16.434375,47.367432],[16.442871,47.399512],[16.514746,47.404541],[16.574414,47.424658],[16.623047,47.447559],[16.636621,47.476611],[16.676563,47.536035],[16.639746,47.608887],[16.432129,47.656299],[16.421289,47.674463],[16.469629,47.695068],[16.521094,47.724463],[16.550977,47.747363],[16.590918,47.750537],[16.647461,47.739014],[16.747559,47.686279],[16.785938,47.678662],[16.823047,47.693994],[16.862695,47.697266],[16.973438,47.695312],[17.066602,47.707568],[17.045605,47.76377],[17.045898,47.804541],[17.030078,47.837109],[17.039941,47.872949],[17.077734,47.900879],[17.089063,47.963623],[17.147363,48.005957],[17.174609,48.012061],[17.277246,48.004346],[17.301563,47.993359],[17.317285,47.990918],[17.480664,47.887598],[17.635254,47.809912],[17.761914,47.770166],[17.947949,47.766895],[18.145605,47.763428],[18.47627,47.777002],[18.724219,47.787158],[18.740625,47.806494],[18.778027,47.852881],[18.74834,47.892676],[18.750098,47.939453],[18.791895,48.000293],[18.91416,48.05083],[19.265137,48.073047],[19.466992,48.110693],[19.497461,48.162109],[19.564258,48.212842],[19.625391,48.223096],[19.70918,48.199805],[19.810059,48.155029],[19.898633,48.131348],[19.950391,48.146631],[20.128613,48.222021],[20.333789,48.295557],[20.475,48.495117],[20.490039,48.526904],[20.643164,48.549707],[20.866602,48.545654],[20.981152,48.519678],[21.067285,48.505908],[21.196387,48.510596],[21.382422,48.553467],[21.451367,48.552246],[21.504688,48.521875],[21.563184,48.495703],[21.602637,48.463672],[21.63252,48.418506],[21.648633,48.401465],[21.674609,48.378369],[21.721484,48.346582],[21.766992,48.338086],[22.111328,48.393359],[22.131836,48.405322]]]}},{"type":"Feature","properties":{"name":"Slovakia"},"geometry":{"type":"Polygon","coordinates":[[[22.538672,49.072705],[22.524121,49.031396],[22.483203,48.983252],[22.432031,48.933545],[22.389453,48.873486],[22.332617,48.745068],[22.295215,48.68584],[22.142871,48.568506],[22.131836,48.405322],[22.111328,48.393359],[21.766992,48.338086],[21.721484,48.346582],[21.674609,48.378369],[21.648633,48.401465],[21.63252,48.418506],[21.602637,48.463672],[21.563184,48.495703],[21.504688,48.521875],[21.451367,48.552246],[21.382422,48.553467],[21.196387,48.510596],[21.067285,48.505908],[20.981152,48.519678],[20.866602,48.545654],[20.643164,48.549707],[20.490039,48.526904],[20.475,48.495117],[20.333789,48.295557],[20.128613,48.222021],[19.950391,48.146631],[19.898633,48.131348],[19.810059,48.155029],[19.70918,48.199805],[19.625391,48.223096],[19.564258,48.212842],[19.497461,48.162109],[19.466992,48.110693],[19.265137,48.073047],[18.91416,48.05083],[18.791895,48.000293],[18.750098,47.939453],[18.74834,47.892676],[18.778027,47.852881],[18.740625,47.806494],[18.724219,47.787158],[18.47627,47.777002],[18.145605,47.763428],[17.947949,47.766895],[17.761914,47.770166],[17.635254,47.809912],[17.480664,47.887598],[17.317285,47.990918],[17.301563,47.993359],[17.277246,48.004346],[17.174609,48.012061],[17.147363,48.005957],[17.085938,48.039551],[17.067871,48.083252],[16.972656,48.198096],[16.86543,48.386914],[16.862695,48.441406],[16.904492,48.503516],[16.943359,48.550928],[16.948828,48.588574],[16.953125,48.598828],[16.985254,48.676904],[17.063281,48.780762],[17.135645,48.841064],[17.188477,48.860937],[17.296875,48.842822],[17.482617,48.827783],[17.625391,48.841846],[17.758496,48.888135],[17.830859,48.928613],[17.892676,48.971143],[17.913281,48.99873],[17.940723,49.011963],[18.050879,49.036523],[18.085938,49.065137],[18.100391,49.119336],[18.109961,49.179785],[18.132617,49.224561],[18.160938,49.257373],[18.364844,49.33623],[18.383105,49.363916],[18.41582,49.390918],[18.476074,49.421094],[18.53457,49.464697],[18.596484,49.491455],[18.676172,49.488477],[18.749707,49.493994],[18.807031,49.509229],[18.832227,49.510791],[18.938184,49.498291],[18.957227,49.448291],[18.968359,49.39624],[19.149414,49.4],[19.250195,49.511426],[19.302344,49.524854],[19.38623,49.563623],[19.441602,49.597705],[19.479688,49.576367],[19.534766,49.504785],[19.593066,49.447119],[19.62666,49.424365],[19.630273,49.406641],[19.66416,49.396045],[19.730078,49.3896],[19.773926,49.372168],[19.787012,49.318555],[19.787988,49.269971],[19.767383,49.235205],[19.756641,49.204395],[19.802246,49.192334],[19.868945,49.204004],[19.916113,49.221387],[20.057617,49.181299],[20.107617,49.270752],[20.163672,49.316406],[20.236523,49.337646],[20.302539,49.365527],[20.362988,49.385254],[20.404688,49.384082],[20.422656,49.392334],[20.474512,49.390186],[20.53457,49.381201],[20.616113,49.391699],[20.729004,49.369922],[20.799512,49.328662],[20.868457,49.314697],[20.947266,49.31709],[21.001172,49.339844],[21.079395,49.418262],[21.136133,49.417041],[21.225,49.429443],[21.350488,49.42876],[21.639648,49.411963],[21.712109,49.381934],[21.890137,49.343457],[21.967676,49.299072],[22.002148,49.246094],[22.020117,49.209521],[22.202539,49.153223],[22.473047,49.081299],[22.538672,49.072705]]]}}]}
